fid,site_code,context_name,parent_context,parent_id,type,chron_orig,c_appr,typology,c_notes,site_name_brain,macro_context_name,site_id,source_type,source,bibliography,region,province,chronology_iccd,parent_chronology_iccd
"7",CLA21,undet. (Roma Palatino - N area) - VIII B.c.,Roma - Palatino - N area (settlement),"295",micro,8th century BC,"3",settlement,"<!DOCTYPE HTML PUBLIC ""-//W3C//DTD HTML 4.0//EN"" ""http://www.w3.org/TR/REC-html40/strict.dtd"">
<html><head><meta name=""qrichtext"" content=""1"" /><style type=""text/css"">
p, li { white-space: pre-wrap; }
</style></head><body style="" font-family:'Sans Serif'; font-size:9pt; font-weight:400; font-style:normal;"">
<p style="" margin-top:0px; margin-bottom:0px; margin-left:0px; margin-right:0px; -qt-block-indent:0; text-indent:0px;"">NULL</p></body></html>",Roma - Palatino - N area,,"282",,,"Motta, L._2002_Planting the seed of Rome_Vegetation History and Archaeobotany, 11_71-78",Lazio,Roma,,Periodo Arcaico (Roma)
"8",CLA21,undet. (Roma Palatino - N area) - VII B.c.,Roma - Palatino - N area (settlement),"295",micro,7th century BC,"3",settlement,,Roma - Palatino - N area,,"282",,,"Motta, L._2002_Planting the seed of Rome_Vegetation History and Archaeobotany, 11_71-78",Lazio,Roma,,Periodo Arcaico (Roma)
"9",CLA21,undet. (Roma Palatino - N area) - VI B.c.,Roma - Palatino - N area (settlement),"295",micro,6th century BC,"3",settlement,,Roma - Palatino - N area,,"282",,,"Motta, L._2002_Planting the seed of Rome_Vegetation History and Archaeobotany, 11_71-78",Lazio,Roma,,Periodo Arcaico (Roma)
"11",CLA22,undet. (Roma Sant'Omobono) - VI B.c.,Roma - Sant'Omobono (sacred),"10",micro,6th century BC,"3",sacred,,Roma - Sant'Omobono,,"283",,,"Costantini, L.,_Costantini Biasini, L._1989_ I vegetali dell’area sacra di S. Omobono. G. Pisani Sartorio, P. Virgili et G. Ioppolo (éd.), Il viver quotidiano in Roma arcaica_Materiali dagli scavi del Tempio Arcaico nell’area sacra di S. Omobono, Rome_61-64 ; Costantini, L._2002_Italia centro-meridionale_Storia dell’agricoltura italiana, 1_221-233",Lazio,Roma,,Periodo Arcaico (Roma)
"14",CLA22,undet. (Roma Sant'Omobono) - first half of the 6th century BC,Roma - Sant'Omobono (sacred),"10",micro,first half of the 6th century BC,"3",sacred,,Roma - Sant'Omobono,,"283",,,"Costantini, L.,_Costantini Biasini, L._1989_ I vegetali dell’area sacra di S. Omobono. G. Pisani Sartorio, P. Virgili et G. Ioppolo (éd.), Il viver quotidiano in Roma arcaica_Materiali dagli scavi del Tempio Arcaico nell’area sacra di S. Omobono, Rome_61-64",Lazio,Roma,,Periodo Arcaico (Roma)
"16",CLA26,US 4 - end 15th century - mid 16th century AD,Roma - Ss. Quattro Coronati (settlement),"15",micro,end 15th century - mid 16th century AD,"3",settlement,discard pit,Roma - Ss. Quattro Coronati,,"287",,,"Moricca, C.,_Alhaique, F.,_Barelli, L.,_Masi, A.,_Morretta, S.,_Pugliese, R.,_Sadori, L._2018_Early arrival of New World species enriching the biological assemblage of the Santi Quattro Coronati Complex (Rome, Italy)_INTERDISCIPLINARIA ARCHAEOLOGICA, 9_83-93",Lazio,Roma,Early modern,Periodo Moderno
"38",CLA42,undet. (Anguillara Sabazia La Marmotta) - ca. 5700-5250 Bc.,Anguillara Sabazia La Marmotta (underwater),"32",micro,5690-5260 BC,"3",underwater,,Anguillara Sabazia - La Marmotta,,"303",,,"Beccaccioli, M.,_Moricca, C.,_Faino, L.,_Reale, R.,_Mineo, M.,_Reverberi, M._2023_The Neolithic site “La Marmotta”: DNA metabarcoding to identify the microbial deterioration of waterlogged archeological wood_Frontiers in Microbiology, 14, 1129983_1-10 ; Rottoli, M._1993_Analisi paletnobotaniche: prime risultanze,“La Marmotta”, Anguillara Sabazia (RM), Scavi 1989, Appendice 1, Un abitato perilacustre di età neolitica_Bull di Paletnologia Italiana, 84_305-315 ; Rottoli, M._2002_Zafferanone selvati",Lazio,Roma,,Mesolitico
"39",CLA42,undet. (Anguillara Sabazia La Marmotta) - Early neolitic,Anguillara Sabazia La Marmotta (underwater),"32",micro,Neolitico iniziale,"3",underwater,,Anguillara Sabazia - La Marmotta,,"303",,,"Costantini, L._2002_Italia centro-meridionale_Storia dell’agricoltura italiana, 1_221-233",Lazio,Roma,Neolitico Iniziale,Neolitico
"72",CLA57,2 - US 198/1 - riempimento buca 198,Tarquinia (settlement),"68",micro,8th century BC,"3",settlement,well,Tarquinia,,"318",,,"Bedini, E.,_Rottoli, M.,_Fornaciari, G.,_Mallegni, F.,_Liborio, G._1997_Analisi di laboratorio. Tarquinia: testimonianze archeologiche e ricostruzione storica: scavi sistematici nell'abitato: campagne 1982-1988_Tarchna/Università degli studi di Milano 1_91-144",Lazio,Viterbo,Periodo Etrusco Arcaico,Periodo Etrusco
"75",CLA57,4 - US 121/1 - riempimento 121,Tarquinia (sacred),"70",micro,10th century BC ,"3",sacred,,Tarquinia,,"318",,,"Bedini, E.,_Rottoli, M.,_Fornaciari, G.,_Mallegni, F.,_Liborio, G._1997_Analisi di laboratorio. Tarquinia: testimonianze archeologiche e ricostruzione storica: scavi sistematici nell'abitato: campagne 1982-1988_Tarchna/Università degli studi di Milano 1_91-144",Lazio,Viterbo,Seconda età del Ferro,Età del Ferro
"82",CLA58,Pit 181 - context 227 - 1390 AD,Tarquinia - Palazzo Vitelleschi (settlement) ,"81",micro,1390 AD,"3",settlement,,Tarquinia - Palazzo Vitelleschi,,"319",,,"Clark, G.,_Costantini, L.,_Finetti, A.,_Giorgi, J.,_Jones, A.,_Reese, D.,_Sutherland, S.,_Whitehouse, D._1989_The food refuse of an affluent urban household in the late fourteenth century: Faunal and botanical remains from the Palazzo Vitelleschi, Tarquinia (Viterbo)_Papers of the British School at Rome, 57_200-321",Lazio,Viterbo,Basso Medioevo,Medioevo
"85",CLA72,1 (Santa Severa - Pyrgi - well),Santa Severa - Pyrgi - well (settlement),"84",micro,,"3",underwater,,,,"827",,,,Lazio,Roma,Periodo Etrusco Arcaico,Periodo Etrusco
"86",CLA72,2 (Santa Severa - Pyrgi - well),Santa Severa - Pyrgi - well (settlement),"84",micro,,"3",underwater,,,,"827",,,"Kodýdková, K.,_Beneš, J.,_Komárková, V.,_Paclíková, K._2013_Pilot archaeobotanical analysis of the sediment the well 112 in Pyrgi, Santa Severa_Archaeologia maritima mediterranea: International Journal on Underwater Archaeology: 10, 2013_181-190",Lazio,Roma,Periodo Etrusco Arcaico,Periodo Etrusco
"87",CLA72,Vessel B (Santa Severa - Pyrgi - well),Santa Severa - Pyrgi - well (settlement),"84",micro,,"3",underwater,,,,"827",,,,Lazio,Roma,Periodo Etrusco Arcaico,Periodo Etrusco
"92",CMA1,via Cavallotti 24 - Pre-roman phase,Senigallia (settlement),"91",micro,Fase Pre romana(V - IV sec a.C.),"3",settlement,,Senigallia,,"458",,,"Lepore, G.,_Ciuccarelli, M. R.,_Assenti, G.,_Belfiori, F.,_Boschi, F.,_Carra, M.,_Visani, F._2012_Progetto “archeologia urbana a Senigallia” I: le ricerche di via Cavallotti_FOLD&R_248, 1-19",Marche,Ancona,,Periodo Arcaico (Roma)
"93",CMA1,via Cavallotti 24 - First Roman phase,Senigallia (settlement),"91",micro,Fase romana I(Fine III - II sec a.C),"3",settlement,A productive function or at least the rustic character of the structure (perhaps characteristic of a courtyard area combining open spaces with small production activities),Senigallia,,"458",,,"Lepore, G.,_Ciuccarelli, M. R.,_Assenti, G.,_Belfiori, F.,_Boschi, F.,_Carra, M.,_Visani, F._2012_Progetto “archeologia urbana a Senigallia” I: le ricerche di via Cavallotti_FOLD&R_248, 1-19",Marche,Ancona,,Periodo Repubblicano (Roma)
"94",CMA1,via Cavallotti 24- Second Roman phase,Senigallia (settlement),"91",micro,Fase romana II(Fine II - I sec a.C.),"3",settlement,This is a functional area for the collection of water or other drinks,Senigallia,,"458",,,"Lepore, G.,_Ciuccarelli, M. R.,_Assenti, G.,_Belfiori, F.,_Boschi, F.,_Carra, M.,_Visani, F._2012_Progetto “archeologia urbana a Senigallia” I: le ricerche di via Cavallotti_FOLD&R_248, 1-19",Marche,Ancona,Periodo Tardo Repubblicano (Roma),Periodo Repubblicano (Roma)
"95",CMA1,via Cavallotti 24 - Third Roman phase,Senigallia (settlement),"91",micro,Fase romana III(XII - XIII sec a.C),"3",settlement,This is a functional area for the collection of water or other drinks,Senigallia,,"458",,,"Lepore, G.,_Ciuccarelli, M. R.,_Assenti, G.,_Belfiori, F.,_Boschi, F.,_Carra, M.,_Visani, F._2012_Progetto “archeologia urbana a Senigallia” I: le ricerche di via Cavallotti_FOLD&R_248, 1-19",Marche,Ancona,,da identificare
"97",CMA3,Giardino della Domus dei Coiedii - Gruppo 1,Suasa (settlement),"96",micro,Gruppo 1: costruzione del giardino e dell'impianto termale(epoca medio-imperiale),"3",settlement,,Suasa,,"460",,,"Giorgi, E.,_Lepore, G.,_Carra, M._2010_Archeologia nella valle del Cesano da Suasa a Santa Maria in Portuno_Atti del Convegno per i venti anni di ricerche dell’Università di Bologna (Castelleone di Suasa, Corinaldo, San Lorenzo in Campo, 18-19 dicembre 2008), Bologna_121-124",Marche,Ancona,Età tardoimperiale,Periodo Imperiale (Roma)
"110",CTO11,US 11023 - phase 3,Podere Marzuolo (settlement),"105",micro,Phase 3(Late II- early III century AD),"3",settlement,,Podere Marzuolo,,"648",,,"Mercuri, A.M.,_Rattighieri, E.,_Rinaldi, R._2021_The Roman Peasant Project 2009-2014: Excavating the Roman Rural Poor (Vol. 154)_University of Pennsylvania Press_317-336",Toscana,Grosseto,Età altoimperiale,Periodo Imperiale (Roma)
"111",CTO11,US 11044 - phase 3,Podere Marzuolo (settlement),"105",micro,Phase 3(Late II- early III century AD),"3",settlement,,Podere Marzuolo,,"648",,,"Mercuri, A.M.,_Rattighieri, E.,_Rinaldi, R._2021_The Roman Peasant Project 2009-2014: Excavating the Roman Rural Poor (Vol. 154)_University of Pennsylvania Press_317-336",Toscana,Grosseto,Età altoimperiale,Periodo Imperiale (Roma)
"113",CTO20,Area D(SU 169) - Pre-settlement phase,Stagno - Pratini dell'Argin Traverso (settlement),"112",micro,Pre-settlement phase(XII–XI century BC)),"3",settlement,,Stagno - Pratini dell'Argin Traverso,,"657",,,"Giachi, G.,_Secci, M. M.,_Pignatelli, O.,_Gambogi, P.,_Lippi, M. M._2010_The prehistoric pile-dwelling settlement of Stagno (Leghorn, Italy): wood and food resource exploitation_Journal of Archaeological Science, 37(6)_1260-1268",Toscana,Livorno,Età del Bronzo finale,Età del Bronzo
"115",CTO20,Area D(SU 113/3) - Settlement phase,Stagno - Pratini dell'Argin Traverso (settlement),"112",micro,Settlement phase(XII–XI century BC)),"3",settlement,,Stagno - Pratini dell'Argin Traverso,,"657",,,"Giachi, G.,_Secci, M. M.,_Pignatelli, O.,_Gambogi, P.,_Lippi, M. M._2010_The prehistoric pile-dwelling settlement of Stagno (Leghorn, Italy): wood and food resource exploitation_Journal of Archaeological Science, 37(6)_1260-1268",Toscana,Livorno,Età del Bronzo finale,Età del Bronzo
"116",CTO20,Area D(SU 113/3) - abandonment phase,Stagno - Pratini dell'Argin Traverso (settlement),"112",micro,abandonment phase(XII–XI century BC)),"3",settlement,,Stagno - Pratini dell'Argin Traverso,,"657",,,"Giachi, G.,_Secci, M. M.,_Pignatelli, O.,_Gambogi, P.,_Lippi, M. M._2010_The prehistoric pile-dwelling settlement of Stagno (Leghorn, Italy): wood and food resource exploitation_Journal of Archaeological Science, 37(6)_1260-1268",Toscana,Livorno,Età del Bronzo finale,Età del Bronzo
"119",CAB1,Trench 8000(context:8041),Trench 8000,"117",micro,Iron Age(local phase: 3a),"3",settlement,,Acquachiara,Trench 8000,"2",,,"Shelton, C. P._2009_Food, Economy, and Identity in the Sangro River Valley, Abruzzo, Italy, 650 BC-AD 150_ProQuest_1-361",Abruzzo,Chieti,,Età del Ferro
"123",CAB1,Trench 10000(context:10007),Trench 10000,"118",micro,Roman(local phase: 2b),"3",settlement,,Acquachiara,Trench 10000,"2",,,"Shelton, C. P._2009_Food, Economy, and Identity in the Sangro River Valley, Abruzzo, Italy, 650 BC-AD 150_ProQuest_1-361",Abruzzo,Chieti,Età altoimperiale,Periodo Imperiale (Roma)
"124",CAB1,Trench 8000(context:8053),Trench 8000,"117",micro,Iron Age(local phase: 5),"3",settlement,,Acquachiara,Trench 8000,"2",,,"Shelton, C. P._2009_Food, Economy, and Identity in the Sangro River Valley, Abruzzo, Italy, 650 BC-AD 150_ProQuest_1-361",Abruzzo,Chieti,,Età del Ferro
"125",CAB1,Trench 10000(context:10022),Trench 10000,"118",micro,Roman(local phase: 2b),"3",settlement,,Acquachiara,Trench 10000,"2",,,"Shelton, C. P._2009_Food, Economy, and Identity in the Sangro River Valley, Abruzzo, Italy, 650 BC-AD 150_ProQuest_1-361",Abruzzo,Chieti,Età altoimperiale,Periodo Imperiale (Roma)
"127",CAB1,Trench 8000(context:8058),Trench 8000,"117",micro,Iron Age(local phase: 3a),"3",settlement,,Acquachiara,Trench 8000,"2",,,"Shelton, C. P._2009_Food, Economy, and Identity in the Sangro River Valley, Abruzzo, Italy, 650 BC-AD 150_ProQuest_1-361",Abruzzo,Chieti,,Età del Ferro
"129",CAB1,Trench 8000(context:8017),Trench 8000,"117",micro,Iron Age(local phase: 5),"3",settlement,,Acquachiara,Trench 8000,"2",,,"Shelton, C. P._2009_Food, Economy, and Identity in the Sangro River Valley, Abruzzo, Italy, 650 BC-AD 150_ProQuest_1-361",Abruzzo,Chieti,,Età del Ferro
"130",CAB1,Trench 8000(context:8011),Trench 8000,"117",micro,Iron Age(local phase: 5),"3",settlement,,Acquachiara,Trench 8000,"2",,,"Shelton, C. P._2009_Food, Economy, and Identity in the Sangro River Valley, Abruzzo, Italy, 650 BC-AD 150_ProQuest_1-361",Abruzzo,Chieti,,Età del Ferro
"137",CAB1,Trench 8000(context:8006),Trench 8000,"117",micro,Iron Age(local phase: 5),"3",settlement,,Acquachiara,Trench 8000,"2",,,"Shelton, C. P._2009_Food, Economy, and Identity in the Sangro River Valley, Abruzzo, Italy, 650 BC-AD 150_ProQuest_1-361",Abruzzo,Chieti,,Età del Ferro
"138",CAB1,Trench 8000(context:8015),Trench 8000,"117",micro,Iron Age(local phase: 5),"3",settlement,,Acquachiara,Trench 8000,"2",,,"Shelton, C. P._2009_Food, Economy, and Identity in the Sangro River Valley, Abruzzo, Italy, 650 BC-AD 150_ProQuest_1-361",Abruzzo,Chieti,,Età del Ferro
"139",CAB1,Trench 8000(context:8060),Trench 8000,"117",micro,Iron Age(local phase: 5),"3",settlement,,Acquachiara,Trench 8000,"2",,,"Shelton, C. P._2009_Food, Economy, and Identity in the Sangro River Valley, Abruzzo, Italy, 650 BC-AD 150_ProQuest_1-361",Abruzzo,Chieti,,Età del Ferro
"140",CAB1,Trench 10000(context:10011),Trench 10000,"118",micro,Roman(local phase: 2a),"3",settlement,,Acquachiara,Trench 10000,"2",,,"Shelton, C. P._2009_Food, Economy, and Identity in the Sangro River Valley, Abruzzo, Italy, 650 BC-AD 150_ProQuest_1-361",Abruzzo,Chieti,Età altoimperiale,Periodo Imperiale (Roma)
"141",CAB1,Trench 8000(context:8070),Trench 8000,"117",micro,Iron Age(local phase: 3a),"3",settlement,,Acquachiara,Trench 8000,"2",,,"Shelton, C. P._2009_Food, Economy, and Identity in the Sangro River Valley, Abruzzo, Italy, 650 BC-AD 150_ProQuest_1-361",Abruzzo,Chieti,,Età del Ferro
"144",CAB1,Trench 8000(context:8012),Trench 8000,"117",micro,Iron Age(local phase: 4a),"3",settlement,,Acquachiara,Trench 8000,"2",,,"Shelton, C. P._2009_Food, Economy, and Identity in the Sangro River Valley, Abruzzo, Italy, 650 BC-AD 150_ProQuest_1-361",Abruzzo,Chieti,,Età del Ferro
"145",CAB1,Trench 8000(context:8033),Trench 8000,"117",micro,Iron Age(local phase: 3a),"3",settlement,,Acquachiara,Trench 8000,"2",,,"Shelton, C. P._2009_Food, Economy, and Identity in the Sangro River Valley, Abruzzo, Italy, 650 BC-AD 150_ProQuest_1-361",Abruzzo,Chieti,,Età del Ferro
"146",CAB1,Trench 8000(context:8031),Trench 8000,"117",micro,Iron Age(local phase: 3a),"3",settlement,,Acquachiara,Trench 8000,"2",,,"Shelton, C. P._2009_Food, Economy, and Identity in the Sangro River Valley, Abruzzo, Italy, 650 BC-AD 150_ProQuest_1-361",Abruzzo,Chieti,,Età del Ferro
"148",CAB1,Trench 8000(context:8045),Trench 8000,"117",micro,Iron Age(local phase: 2),"3",settlement,,Acquachiara,Trench 8000,"2",,,"Shelton, C. P._2009_Food, Economy, and Identity in the Sangro River Valley, Abruzzo, Italy, 650 BC-AD 150_ProQuest_1-361",Abruzzo,Chieti,,Età del Ferro
"150",CAB1,Trench 8000(context:8052),Trench 8000,"117",micro,Iron Age(local phase: 5),"3",settlement,,Acquachiara,Trench 8000,"2",,,"Shelton, C. P._2009_Food, Economy, and Identity in the Sangro River Valley, Abruzzo, Italy, 650 BC-AD 150_ProQuest_1-361",Abruzzo,Chieti,,Età del Ferro
"153",CAB1,Trench 8000(context:8067),Trench 8000,"117",micro,Iron Age(local phase: 4a),"3",settlement,,Acquachiara,Trench 8000,"2",,,"Shelton, C. P._2009_Food, Economy, and Identity in the Sangro River Valley, Abruzzo, Italy, 650 BC-AD 150_ProQuest_1-361",Abruzzo,Chieti,,Età del Ferro
"156",CAB1,Trench 8000(context:8054),Trench 8000,"117",micro,Iron Age(local phase: 5),"3",settlement,,Acquachiara,Trench 8000,"2",,,"Shelton, C. P._2009_Food, Economy, and Identity in the Sangro River Valley, Abruzzo, Italy, 650 BC-AD 150_ProQuest_1-361",Abruzzo,Chieti,,Età del Ferro
"157",CAB1,Trench 8000(context:8026),Trench 8000,"117",micro,Iron Age(local phase: 6),"3",settlement,,Acquachiara,Trench 8000,"2",,,"Shelton, C. P._2009_Food, Economy, and Identity in the Sangro River Valley, Abruzzo, Italy, 650 BC-AD 150_ProQuest_1-361",Abruzzo,Chieti,,Età del Ferro
"158",CAB1,Trench 8000(context:undet. (Acquachiara)),Trench 8000,"117",micro,Iron Age(local phase: 7),"3",settlement,,Acquachiara,Trench 8000,"2",,,"Shelton, C. P._2009_Food, Economy, and Identity in the Sangro River Valley, Abruzzo, Italy, 650 BC-AD 150_ProQuest_1-361",Abruzzo,Chieti,,Età del Ferro
"159",CAB1,Trench 10000(context:7011),Trench 10000,"118",micro,Roman(local phase: 2a),"3",settlement,,Acquachiara,Trench 10000,"2",,,"Shelton, C. P._2009_Food, Economy, and Identity in the Sangro River Valley, Abruzzo, Italy, 650 BC-AD 150_ProQuest_1-361",Abruzzo,Chieti,Età altoimperiale,Periodo Imperiale (Roma)
"166",CAB1,Trench 8000(context:8075),Trench 8000,"117",micro,Iron Age(local phase: 4a),"3",settlement,,Acquachiara,Trench 8000,"2",,,"Shelton, C. P._2009_Food, Economy, and Identity in the Sangro River Valley, Abruzzo, Italy, 650 BC-AD 150_ProQuest_1-361",Abruzzo,Chieti,,Età del Ferro
"167",CAB1,Trench 10000(context:Small pit),Trench 10000,"118",micro,30-130 AD,"3",settlement,,Acquachiara,Trench 10000,"2",,,"Shelton, C. P._2009_Food, Economy, and Identity in the Sangro River Valley, Abruzzo, Italy, 650 BC-AD 150_ProQuest_1-361",Abruzzo,Chieti,Età altoimperiale,Periodo Imperiale (Roma)
"203",CAB6,undet. (Celano - Le paludi) - 17th-10th century BC,Celano - Le paludi (settlement),"202",micro,17th-10th century BC,"3",undet.,,Alba Fucens,,"1",,,"Coubray, S._1991_Indagini paletnobotaniche presso il sito abruzzese di età protostorica delle Paludi di Celano_""Atti del Convegno di Archeologia” Il Fucino e le aree limitrofe nell’antichità, Avezzano 1989_174-198",Abruzzo,L'Aquila,,Età del Bronzo
"213",CLA1,Fossa 39,Selva dei Muli (settlement),"211",micro,Eneolitico - Fase D - facies Laterza,"3",settlement,,Selva dei Muli,,"264",,,"Celant, A._2011_Antracologia, utilizzazione del legno e ricostruzione paleoambientale dell’insediamento eneolitico di Selva dei Muli (Frosinone)_ORIGINI, 33_233-237",Lazio,Frosinone,Laterza (facies),Eneolitico
"228",CLA7,undet. (Rieti - Cures Sabini),Rieti - Cures Sabini (settlement),"227",micro,VIII - VII sec. a.C.,"3",undet.,,,,"849",,,"Costantini, L._2002_Italia centro-meridionale_Storia dell’agricoltura italiana, 1_221-233",Lazio,Rieti,Seconda età del Ferro,Età del Ferro
"229",CLA7,A2 - Capanna,Rieti - Cures Sabini (settlement),"227",micro,ultimo quarto dell'VIII sec. a.C.,"3",settlement,,,,"849",,,"Costantini, L.,_Costantini Biasini, L._1988_Paleoetnobotanica - Nota preliminare_Cures Sabini: risultati della sesta campagna di scavo. Archeologia Laziale IX, QuadAEI (16)_331-332",Lazio,Rieti,Seconda età del Ferro,Età del Ferro
"261",CLA15,Atrium Vestae - Hut 1 - floor,Roma - Fori Imperial (settlement),"259",micro,8th-7th century BC,"3",settlement,,Roma - Fori Imperiali,,"276",,,"Costantini, L.,_Giorgi, J.A_2009_The charred plant remains_Supplements to the Memoirs of the American Academy in Rome, 8_ 125-151 ; Vaccaro; E.; Ghisleni; M.; Arnoldus-Huyzendveld; A.; Grey; C.; Bowes; K.; MacKinnon; M.; Mercuri; A.M.; Pecci; A.; Cau Ontiveros; M.A.; Rattigheri; E.; Rinaldi; R.. 2013.0. ""Excavating the Roman peasant II: excavations at Case Nuove, Cinigiano (GR) 1""",Lazio,Roma,Prima età del Ferro,Età del Ferro
"263",CLA15,undet. (Roma Fori Imperiali),Roma - Fori Imperial (undet.),"258",micro,VII sec. a.C.,"3",undet.,,Roma - Fori Imperiali,,"276",,,"Costantini, L._2002_Italia centro-meridionale_Storia dell’agricoltura italiana, 1_221-233",Lazio,Roma,,Periodo Arcaico (Roma)
"264",CLA15,Palatine SW - undet. (Roma Fori Imperiali),Roma - Fori Imperial (settlement),"259",micro,6th-5th centuries BC,"3",settlement,,Roma - Fori Imperiali,,"276",,,"Costantini, L.,_ Giorgi, J._2001_Charred plant remains of the Archaic period from the Forum and Palatine_Journal of Roman Archaeology, 14_239-248",Lazio,Roma,Prima Repubblica (Roma),Periodo Repubblicano (Roma)
"265",CLA15,Via Sacra/Forum - undet. (Roma - Fori Imperiali) - VIII-VI B.c.,Roma - Fori Imperial (settlement),"259",micro,8th-6th centuries BC,"3",settlement,,Roma - Fori Imperiali,,"276",,,"Costantini, L.,_ Giorgi, J._2001_Charred plant remains of the Archaic period from the Forum and Palatine_Journal of Roman Archaeology, 14_239-248",Lazio,Roma,,Periodo Arcaico (Roma)
"266",CLA15,Via Sacra - undet. (Roma Fori Imperiali),Roma - Fori Imperial (sacred),"252",micro,,"3",sacred,,Roma - Fori Imperiali,,"276",,,"Costantini, L.,_ Giorgi, J._2001_Charred plant remains of the Archaic period from the Forum and Palatine_Journal of Roman Archaeology, 14_239-248",Lazio,Roma,,Periodo Arcaico (Roma)
"268",CLA15,Atrium Vestae - Room 51 S sounding part of amphora fill,Roma - Fori Imperial (sacred),"252",micro,1st century BC,"3",sacred,,Roma - Fori Imperiali,,"276",,,"Costantini, L.,_Giorgi, J.A_2009_The charred plant remains_Supplements to the Memoirs of the American Academy in Rome, 8_ 125-151",Lazio,Roma,Età altoimperiale,Periodo Imperiale (Roma)
"269",CLA15,Atrium Vestae - Room 51 N sounding (100% fill of amphora),Roma - Fori Imperial (sacred),"252",micro,1st century BC,"3",sacred,,Roma - Fori Imperiali,,"276",,,"Costantini, L.,_Giorgi, J.A_2009_The charred plant remains_Supplements to the Memoirs of the American Academy in Rome, 8_ 125-151",Lazio,Roma,Età altoimperiale,Periodo Imperiale (Roma)
"273",CLA15,Atrium Vestae - Room 49 E dolium fill around pot,Roma - Fori Imperial (sacred),"252",micro,1st century BC,"3",sacred,,Roma - Fori Imperiali,,"276",,,"Costantini, L.,_Giorgi, J.A_2009_The charred plant remains_Supplements to the Memoirs of the American Academy in Rome, 8_ 125-151",Lazio,Roma,Età altoimperiale,Periodo Imperiale (Roma)
"277",CLA15,S. Omobono - undet. (Roma Fori Imperiali),Roma - Fori Imperial (sacred),"252",micro,8th century BC,"3",sacred,,Roma - Fori Imperiali,,"276",,,"Costantini, L.,_ Giorgi, J._2001_Charred plant remains of the Archaic period from the Forum and Palatine_Journal of Roman Archaeology, 14_239-248",Lazio,Roma,,Periodo Arcaico (Roma)
"288",CLA17,Pit VI,Roma - Foro Romano - Sepolcreto Arcaico (funerary),"286",micro,8th-6th centuries BC,"3",funerary,,Roma - Foro Romano - Sepolcreto Arcaico,,"278",,,"Van Kampen, I.,_Rathje, A.,_Celant, A.,_Follieri, M.,_De GrossiI Mazzorin, J.,_Minniti, C._2005_The pre-Republican habitation layers of the Via sacra in Giacomo Boni’s excavation of the sepolcreto arcaico_Papers in Italian Archaeology VI, Communities and Settlements from the Neolithic to the Early Medieval Period (Vol. 1452)_745-753",Lazio,Roma,,Periodo Arcaico (Roma)
"300",CLA20,Saggio W - Terreni di occlusione naturale delle fogne della Domus Tiberiana,Roma - Palatino - Tempio Magna Mater (sacred),"299",micro,second half of the 4th - second half to end of the 5th century AD,"3",sacred,,Roma - Palatino - Tempio Magna Mater,,"281",,,"Coletti, F.,_Celant, A.,_Pensabene Perez, P._2006_Ricerche archeologiche e paleoambientali sul Palatino tra l’età arcaica e la tardoantichità–primi risultati_Innovazioni tecnologiche per i beni culturali in Italia. Atti del convegno Pàtron_557-564",Lazio,Roma,,Tarda Antichità
"301",CLA20,Saggio V - Livelli sottostanti la cella del Santuario della Vittoria,Roma - Palatino - Tempio Magna Mater (sacred),"299",micro,294 BC,"3",sacred,,Roma - Palatino - Tempio Magna Mater,,"281",,,"Coletti, F.,_Celant, A.,_Pensabene Perez, P._2006_Ricerche archeologiche e paleoambientali sul Palatino tra l’età arcaica e la tardoantichità–primi risultati_Innovazioni tecnologiche per i beni culturali in Italia. Atti del convegno Pàtron_557-564",Lazio,Roma,Età tardoimperiale,Periodo Imperiale (Roma)
"307",CLA22,Ambiente I - undet. (Roma Sant'Omobono),Roma - Sant'Omobono (sacred),"10",micro,6th century BC,"3",sacred,,Roma - Sant'Omobono,,"283",,,"Costantini, L.,_Costantini Biasini, L._1989_ I vegetali dell’area sacra di S. Omobono. G. Pisani Sartorio, P. Virgili et G. Ioppolo (éd.), Il viver quotidiano in Roma arcaica_Materiali dagli scavi del Tempio Arcaico nell’area sacra di S. Omobono, Rome_61-64",Lazio,Roma,,Periodo Arcaico (Roma)
"310",CLA23,East sewer - undet. (Roma Colosseum),Roma - Colosseum (settlement),"308",micro,second half of the 4th century AD,"3",settlement,,Roma - Colosseum,,"284",,,"Celant, A.,_Follieri, M._1992_Archaeobotany of the East sewer of the Colosseum_OFP Informations ; Giachi; G.; Secci; M. M.; Pignatelli; O.; Gambogi; P.; Lippi; M. M.. 2010.0. ""The prehistoric pile-dwelling settlement of Stagno (Leghorn, Italy): wood and food resource exploitation""",Lazio,Roma,,Tarda Antichità
"311",CLA23,2 III B,Roma - Colosseum (settlement),"308",micro,second half of the 4th century AD,"3",settlement,,Roma - Colosseum,,"284",,,"Follieri, M._1975_Resti vegetali microscopici nel collettore ovest del Colosseo_Annali di botanica_34",Lazio,Roma,,Tarda Antichità
"312",CLA23,3 III B,Roma - Colosseum (settlement),"308",micro,second half of the 4th century AD,"3",settlement,,Roma - Colosseum,,"284",,,"Follieri, M._1975_Resti vegetali microscopici nel collettore ovest del Colosseo_Annali di botanica_34",Lazio,Roma,,Tarda Antichità
"313",CLA23,1 III B,Roma - Colosseum (settlement),"308",micro,second half of the 4th century AD,"3",settlement,,Roma - Colosseum,,"284",,,"Follieri, M._1975_Resti vegetali microscopici nel collettore ovest del Colosseo_Annali di botanica_34",Lazio,Roma,,Tarda Antichità
"314",CLA23,4 III A,Roma - Colosseum (settlement),"308",micro,second half of the 4th century AD,"3",settlement,,Roma - Colosseum,,"284",,,"Follieri, M._1975_Resti vegetali microscopici nel collettore ovest del Colosseo_Annali di botanica_34",Lazio,Roma,,Tarda Antichità
"316",CLA24,undet. (Roma Valle del Colosseo),Roma - Valle del Colosseo (settlement),"315",micro,,"3",settlement,,Roma - Valle del Colosseo,,"285",,,"Celant, A.,_Magri, D._1999_Archaeobotanical study of a sediment core from the Colosseum valley_Riassunti 94° Congresso della Società Botanica Italiana_40",Lazio,Roma,,Periodo Imperiale (Roma)
"318",CLA25,undet. (Roma Arco di Costantino),Roma - Arco di Costantino (settlement),"317",micro,14th-15th century AD,"3",settlement,,Roma - Arco di Costantino,,"286",,,"Celant, A.,_Altieri, A._1995_Ricerche archeobotaniche da una fossa medievale presso l’Arco di Costantino (Roma)_Giornale Botanico Italiano, 129_224-224",Lazio,Roma,,Rinascimento
"319",CLA26,US 3,Roma - Ss. Quattro Coronati (settlement),"15",micro,end 15th century - mid 16th century AD,"3",settlement,discard pit,Roma - Ss. Quattro Coronati,,"287",,,"Moricca, C.,_Alhaique, F.,_Barelli, L.,_Masi, A.,_Morretta, S.,_Pugliese, R.,_Sadori, L._2018_Early arrival of New World species enriching the biological assemblage of the Santi Quattro Coronati Complex (Rome, Italy)_INTERDISCIPLINARIA ARCHAEOLOGICA, 9_83-93",Lazio,Roma,Early modern,Periodo Moderno
"322",CLA27,undet. (Roma Testaccio Nuovo Mercato),Roma - Testaccio - Nuovo Mercato (settlement),"321",micro,,"3",settlement,,Roma - Testaccio - Nuovo Mercato,,"288",,,"Stellati, A.,_Colaianni, G.,_Fiorentino, G.,_Sebastiani, R.,_Contino, A._2013_Land use and crop production in the urban area of Rome: new data from the “Nuovo Mercato” of Monte Testaccio (Rome, Italy)_In 16th Conference of the International Work Group for Palaeoethnobotany-Abstract Book_158-159",Lazio,Roma,,da identificare
"332",CLA31,T.505 - US 15,Roma - Centocelle - Area T. 505 (settlement),"17",micro,epoca arcaica,"3",settlement,filling material,Roma - Centocelle - Area T. 505,,"292",,,"Larocca, F.,_Celant, A._2004_L’occupazione arcaica e altorepubblicana. Area T. 14: risultati delle ricerche archeobotaniche_Centocelle I, Roma SDO Le indagini archeologiche_287-287",Lazio,Roma,,Periodo Arcaico (Roma)
"335",CLA31,US 14,Roma - Centocelle - Area T. 505 (settlement),"17",micro,età repubblicana,"3",settlement,channels - diches and tunnels,Roma - Centocelle - Area T. 505,,"292",,,"Larocca, F.,_Celant, A._2004_L’occupazione arcaica e altorepubblicana. Area T. 14: risultati delle ricerche archeobotaniche_Centocelle I, Roma SDO Le indagini archeologiche_287-287",Lazio,Roma,,Periodo Repubblicano (Roma)
"336",CLA31,T.505 - US 18,Roma - Centocelle - Area T. 505 (settlement),"17",micro,epoca arcaica,"3",settlement,filling material,Roma - Centocelle - Area T. 505,,"292",,,"Larocca, F.,_Celant, A._2004_L’occupazione arcaica e altorepubblicana. Area T. 14: risultati delle ricerche archeobotaniche_Centocelle I, Roma SDO Le indagini archeologiche_287-287",Lazio,Roma,,Periodo Arcaico (Roma)
"337",CLA31,T.505 - US 17,Roma - Centocelle - Area T. 505 (settlement),"17",micro,epoca arcaica,"3",settlement,filling material,Roma - Centocelle - Area T. 505,,"292",,,"Larocca, F.,_Celant, A._2004_L’occupazione arcaica e altorepubblicana. Area T. 14: risultati delle ricerche archeobotaniche_Centocelle I, Roma SDO Le indagini archeologiche_287-287",Lazio,Roma,,Periodo Arcaico (Roma)
"367",CLA34,Area 1 - undet. (Roma Quadrato di Torre Spaccata),Roma - Quadrato di Torre Spaccata (settlement),"19",micro,,"3",settlement,,Roma - Quadrato di Torre Spaccata,,"295",,,"Celant, A._1995_ Macroresti vegetali del livello neolitico nell’insediamento di Quadrato di Torre Spaccata (Roma)_Origini, 10_277-286",Lazio,Roma,Neolitico Finale,Neolitico
"372",CLA34,undet. (Roma Quadrato di Torre Spaccata) - T38S (ammasso di concotto),Roma - Quadrato di Torre Spaccata (settlement),"19",micro,,"3",settlement,,Roma - Quadrato di Torre Spaccata,,"295",,,"Celant, A._2002_Ricerche paleobotaniche nel villaggio eneolitico di Le Cerquete-Fianello (Maccarese, Fiumicino)_Le dune, il lago, il mare: una comunità di villaggio dell’età del Rame a Maccarese_249-252",Lazio,Roma,Neolitico Finale,Neolitico
"382",CLA38,Canale Traverso - PTS5 5.76 5.81 m,Fiumicino - Portus (underwater),"379",micro,4th century AD,"3",settlement,,Fiumicino - Portus,,"299",,,"Pepe, C.,_Giardini, M.,_Giraudi, C.,_Masi, A.,_Mazzini, I.,_Sadori, L._2013_Plant landscape and environmental changes recorded in marginal marine environments: the ancient Roman harbour of Portus (Rome, Italy)_Quaternary International, 303_73-81",Lazio,Roma,Età tardoimperiale,Periodo Imperiale (Roma)
"383",CLA38,Canale Traverso - PTS5 4.60 4.66 m,Fiumicino - Portus (underwater),"379",micro,4th century AD,"3",settlement,,Fiumicino - Portus,,"299",,,"Pepe, C.,_Giardini, M.,_Giraudi, C.,_Masi, A.,_Mazzini, I.,_Sadori, L._2013_Plant landscape and environmental changes recorded in marginal marine environments: the ancient Roman harbour of Portus (Rome, Italy)_Quaternary International, 303_73-81",Lazio,Roma,Età tardoimperiale,Periodo Imperiale (Roma)
"386",CLA38,Dock - PTS13 4.70 4.81 m,Fiumicino - Portus (underwater),"379",micro,,"3",settlement,,Fiumicino - Portus,,"299",,,"Pepe, C.,_Giardini, M.,_Giraudi, C.,_Masi, A.,_Mazzini, I.,_Sadori, L._2013_Plant landscape and environmental changes recorded in marginal marine environments: the ancient Roman harbour of Portus (Rome, Italy)_Quaternary International, 303_73-81",Lazio,Roma,,Periodo Imperiale (Roma)
"389",CLA38,Canale Traverso - PTS5 8.50 8.55 m,Fiumicino - Portus (underwater),"379",micro,4th century AD,"3",settlement,,Fiumicino - Portus,,"299",,,"Pepe, C.,_Giardini, M.,_Giraudi, C.,_Masi, A.,_Mazzini, I.,_Sadori, L._2013_Plant landscape and environmental changes recorded in marginal marine environments: the ancient Roman harbour of Portus (Rome, Italy)_Quaternary International, 303_73-81",Lazio,Roma,Età tardoimperiale,Periodo Imperiale (Roma)
"392",CLA38,Dock - PTS13 2.70 2.82 m,Fiumicino - Portus (underwater),"379",micro,,"3",settlement,,Fiumicino - Portus,,"299",,,"Pepe, C.,_Giardini, M.,_Giraudi, C.,_Masi, A.,_Mazzini, I.,_Sadori, L._2013_Plant landscape and environmental changes recorded in marginal marine environments: the ancient Roman harbour of Portus (Rome, Italy)_Quaternary International, 303_73-81",Lazio,Roma,,Periodo Imperiale (Roma)
"394",CLA38,Canale Traverso - PTS5 8.55 8.60 m,Fiumicino - Portus (underwater),"379",micro,4th century AD,"3",settlement,,Fiumicino - Portus,,"299",,,"Pepe, C.,_Giardini, M.,_Giraudi, C.,_Masi, A.,_Mazzini, I.,_Sadori, L._2013_Plant landscape and environmental changes recorded in marginal marine environments: the ancient Roman harbour of Portus (Rome, Italy)_Quaternary International, 303_73-81",Lazio,Roma,Età tardoimperiale,Periodo Imperiale (Roma)
"401",CLA40,undet. (Lago Albano - Villaggio delle Macine),Lago Albano - Villaggio delle Macine (underwater),"400",micro,,"3",underwater,,Lago Albano - Villaggio delle Macine,,"301",,,"Carra, M.,_Cattani, L.,_Rizzi, M._2007_L’economia di sussistenza al Villaggio delle Macine (Castel Gandolfo, Roma) su basi paleocarpologiche_Atti della XL Riunione Scientifica “Strategie di insediamento fra Lazio e Campania in età preistorica e protostorica”. ISTITUTO ITALIANO DI PREISTORIA E PROTOSTORIA_775-786",Lazio,Roma,"Età del Bronzo antico ; Età del Bronzo medio",Età del Bronzo
"407",CLA41,fllor of a mid-Vth hut - sampled as fn3,Allumiere - La Fontanaccia (settlement),"402",micro,mid-5th century AD,"2",settlement,"From the floor of this modest Late Antique ‘hut’, a large amount of charred material was recovered. The archaeobotanical samples were divided into 12 units, but the lack of further reference points makes it impossible to provide a distinct attribution for each of them",Allumiere - La Fontanaccia,,"302",,,"Sadori, L.,_Susanna, F._2005_Hints of economic change during the late Roman Empire period in central Italy: a study of charred plant remains from “La Fontanaccia”, near Rome_Vegetation History and Archaeobotany, 14_386-393",Lazio,Roma,,Tarda Antichità
"414",CLA41,fllor of a mid-Vth hut - sampled as fn8,Allumiere - La Fontanaccia (settlement),"402",micro,mid-5th century AD,"2",settlement,"From the floor of this modest Late Antique ‘hut’, a large amount of charred material was recovered. The archaeobotanical samples were divided into 12 units, but the lack of further reference points makes it impossible to provide a distinct attribution for each of them",Allumiere - La Fontanaccia,,"302",,,"Sadori, L.,_Susanna, F._2005_Hints of economic change during the late Roman Empire period in central Italy: a study of charred plant remains from “La Fontanaccia”, near Rome_Vegetation History and Archaeobotany, 14_386-393",Lazio,Roma,,Tarda Antichità
"430",CLA43,undet. (Anguillara Sabazia Mura de Santo Stefano),Anguillara Sabazia - Mura de Santo Stefano (sacred),"429",micro,9th-11th century AD,"3",sacred,,Anguillara Sabazia - Mura de Santo Stefano,,"304",,,"Costantini, L.,_Costantini, L.,_Napolitano, G.,_Whitehouse, D._1983_Cereali e legumi medievali provenienti dalle mura di Santo Stefano. Anguillara Sabazia (Roma)_Archeologia Medievale, 10, 393-414",Lazio,Roma,,Medioevo
"433",CLA44,room D - D 18,S. Angelo Romano - Grotta dello Sventatoio (settlement),"432",micro,fase avanzata della media età del Bronzo,"3",settlement,,S. Angelo Romano - Grotta dello Sventatoio,,"305",,,"Costantini, L.,_Costantini Biasini, L._2007_Economia agricola del Lazio a sud del Tevere tra Bronzo antico e Bronzo medio_Atti della XL riunione scientifica Istituto Italiano di Preistoria e Protostoria_ 787-801",Lazio,Roma,Età del Bronzo medio,Età del Bronzo
"450",CLA46,Casa del Nostromo - US 215,Santa Severa - Castello (funerary),"442",micro,7th-8th century AD,"3",funerary,,Santa Severa - Castello,,"307",,,"Susanna, F.,_Enei, F._2013_Studio archeobotanico di macroresti provenienti dal sito di Santa Severa. Primi risultati. Santa Severa—Tra leggenda e realtà storica_Viterbo, Italy: Ceccarelli Editrice Srl_234-236",Lazio,Roma,Alto Medioevo,Medioevo
"451",CLA46,Casa del Nostromo - US 283,Santa Severa - Castello (funerary),"442",micro,7th-8th century AD,"3",funerary,,Santa Severa - Castello,,"307",,,"Susanna, F.,_Enei, F._2013_Studio archeobotanico di macroresti provenienti dal sito di Santa Severa. Primi risultati. Santa Severa—Tra leggenda e realtà storica_Viterbo, Italy: Ceccarelli Editrice Srl_234-236",Lazio,Roma,Alto Medioevo,Medioevo
"478",CLA52,QIV,Lago di Bolsena - Gran Carro (underwater),"65",micro,12th-8th century BC,"3",underwater,,Lago di Bolsena - Gran Carro,,"313",,,"Costantini, L.,_Costantini Biasini, L._1987_Bolsena-Gran Carro. I resti vegetali. L’alimentazione nel Mondo Antico (Gli Etruschi)_Ministerio per i Beni Culturali e Ambientali: Roma, Italy_83-87",Lazio,Viterbo,Età del Bronzo recente,"Età del Bronzo ; Età del Ferro"
"479",CLA52,Q2 - Str. 9,Lago di Bolsena - Gran Carro (underwater),"65",micro,12th-8th century BC,"3",underwater,,Lago di Bolsena - Gran Carro,,"313",,,"Costantini, L.,_Biasini, L. C.,_Scali, S._1997_Significato e limiti della ricerca archeobotanica nel sito del Gran Carro, Bolsena (Vt)_Forma lacus antique, Atti 3 Seminario di Geoarcheologia. Bollettino di Studi e Ricerche XII_39-58",Lazio,Viterbo,Età del Bronzo recente,"Età del Bronzo ; Età del Ferro"
"480",CLA52,Vessel 6,Lago di Bolsena - Gran Carro (underwater),"65",micro,periodo villanoviano,"3",underwater,pottery vessels,Lago di Bolsena - Gran Carro,,"313",,,"Hopf, M.,_Tamburini P._1995_Determinazione dei resti vegetali del villaggio del “Gran Carro”(Lago di Bolsena, Viterbo): Scavo 1980. Il “Gran Carro” sul Lago di Bolsena (1959–1985)_Archaeologica_136-138",Lazio,Viterbo,,Villanoviano
"481",CLA52,QI,Lago di Bolsena - Gran Carro (underwater),"65",micro,12th-8th century BC,"3",underwater,,Lago di Bolsena - Gran Carro,,"313",,,"Costantini, L.,_Costantini Biasini, L._1987_Bolsena-Gran Carro. I resti vegetali. L’alimentazione nel Mondo Antico (Gli Etruschi)_Ministerio per i Beni Culturali e Ambientali: Roma, Italy_83-87",Lazio,Viterbo,Età del Bronzo finale,"Età del Bronzo ; Età del Ferro"
"482",CLA52,QII,Lago di Bolsena - Gran Carro (underwater),"65",micro,12th-8th century BC,"3",underwater,,Lago di Bolsena - Gran Carro,,"313",,,"Costantini, L.,_Costantini Biasini, L._1987_Bolsena-Gran Carro. I resti vegetali. L’alimentazione nel Mondo Antico (Gli Etruschi)_Ministerio per i Beni Culturali e Ambientali: Roma, Italy_83-87",Lazio,Viterbo,Età del Bronzo finale,"Età del Bronzo ; Età del Ferro"
"483",CLA52,QIII,Lago di Bolsena - Gran Carro (underwater),"65",micro,12th-8th century BC,"3",underwater,,Lago di Bolsena - Gran Carro,,"313",,,"Costantini, L.,_Costantini Biasini, L._1987_Bolsena-Gran Carro. I resti vegetali. L’alimentazione nel Mondo Antico (Gli Etruschi)_Ministerio per i Beni Culturali e Ambientali: Roma, Italy_83-87",Lazio,Viterbo,Età del Bronzo finale,"Età del Bronzo ; Età del Ferro"
"489",CLA52,undet. (Lago di Bolsena - Gran Carro),Lago di Bolsena - Gran Carro (underwater),"65",micro,IX sec. a.C.,"3",underwater,,Lago di Bolsena - Gran Carro,,"313",,,"Costantini, L._2002_Italia centro-meridionale_Storia dell’agricoltura italiana, 1_221-233",Lazio,Viterbo,,Età del Ferro
"500",CLA53,undet. (Valentano Santa Maria),Valentano - Santa Maria (settlement),"499",micro,end of 13th-beginning of 14th century,"3",undet.,,Valentano - Santa Maria,,"314",,,"Sadori, L.,_Celauro, F.,_Gobbi, E.,_Masi, A.,_Paganelli, M.,_Petitti, P.,_Rossi, F.,_Sabato, D._2013_A Medieval-Renaissance picture of common and aristocratic use of plants at Valentano (northern Latium, central Italy)_Abstract IWGP_156",Lazio,Viterbo,Basso Medioevo,Medioevo
"506",CLA54,wall cavity,Valentano - Rocca Farnese (settlement),"505",micro,1470-1500 AD,"3",settlement,,Valentano - Rocca Farnese,,"315",,,"Sadori, L.,_Celauro, F.,_Gobbi, E.,_Masi, A.,_Paganelli, M.,_Petitti, P.,_Rossi, F.,_Sabato, D._2013_A Medieval-Renaissance picture of common and aristocratic use of plants at Valentano (northern Latium, central Italy)_Abstract IWGP_156",Lazio,Viterbo,,Rinascimento
"511",CLA56,undet. (Blera Le Pozze),Blera - Le Pozze (settlement),"510",micro,IV-III sec. a.C.,"3",undet.,,Blera - Le Pozze,,"317",,,"Costantini, L._2002_Italia centro-meridionale_Storia dell’agricoltura italiana, 1_221-233",Lazio,Viterbo,Prima Repubblica (Roma),Periodo Repubblicano (Roma)
"512",CLA56,Well 23,Blera - Le Pozze (settlement),"510",micro,4th-3d century BC,"3",settlement,,Blera - Le Pozze,,"317",,,"Costantini, L.,_Giorgi, J. A._1987_Blera. I resti vegetali. L’alimentazione nel mondo antico_Gli Etruschi, Ministerio per i Beni Culturali e Ambientali 2) Ministerio per i Beni Culturali e Ambientali, Roma_83-87",Lazio,Viterbo,Prima Repubblica (Roma),Periodo Repubblicano (Roma)
"514",CLA57,US 814,Tarquinia (sacred),"70",micro,5th century BC,"3",sacred,,Tarquinia,,"318",,,"Bonghi Jovino, M.,_Bagnasco Gianni, G._2005_Offerte dal regno vegetale e dal regno animale nelle manifestazioni del sacro_atti dell'incontro di studio, Milano, 26-27 giugno 2003_113-122",Lazio,Viterbo,Prima Repubblica (Roma),Periodo Repubblicano (Roma)
"515",CLA57,US 813,Tarquinia (sacred),"70",micro,5th century BC,"3",sacred,,Tarquinia,,"318",,,"Bonghi Jovino, M.,_Bagnasco Gianni, G._2005_Offerte dal regno vegetale e dal regno animale nelle manifestazioni del sacro_atti dell'incontro di studio, Milano, 26-27 giugno 2003_113-122",Lazio,Viterbo,Prima Repubblica (Roma),Periodo Repubblicano (Roma)
"516",CLA57,alpha - olla 1,Tarquinia (sacred),"70",micro,,"3",sacred,,Tarquinia,,"318",,,"Chiesa, F._2005_Un rituale di fondazione nell'area alpha di Tarquinia. Offerte dal regno vegetale e dal regno animale nelle manifestazioni del sacro_atti dell'incontro di studio, Milano 26-27 giugno 2003.Tarchna. Supplemento/Università degli studi di Milano 1_103-110",Lazio,Viterbo,Periodo Etrusco Arcaico,Periodo Etrusco
"517",CLA57,alpha - olla 2,Tarquinia (sacred),"70",micro,,"3",sacred,,Tarquinia,,"318",,,"Chiesa, F._2005_Un rituale di fondazione nell'area alpha di Tarquinia. Offerte dal regno vegetale e dal regno animale nelle manifestazioni del sacro_atti dell'incontro di studio, Milano 26-27 giugno 2003.Tarchna. Supplemento/Università degli studi di Milano 1_103-110",Lazio,Viterbo,Periodo Etrusco Arcaico,Periodo Etrusco
"518",CLA57,"Tarquinia, aerea urbana, deposito reiterato",Tarquinia (undet.),"69",micro,,"3",settlement,,Tarquinia,,"318",,,"Rottoli, M._2001_Analisi botaniche_Tarquinia Etrusca. Una nuova storia_59-61",Lazio,Viterbo,Periodo Etrusco Arcaico,Periodo Etrusco
"523",CLA57,14 - US 342 - strato con tracce di combustione,Tarquinia (settlement),"68",micro,5th century BC,"3",settlement,,Tarquinia,,"318",,,"Bedini, E.,_Rottoli, M.,_Fornaciari, G.,_Mallegni, F.,_Liborio, G._1997_Analisi di laboratorio. Tarquinia: testimonianze archeologiche e ricostruzione storica: scavi sistematici nell'abitato: campagne 1982-1988_Tarchna/Università degli studi di Milano 1_91-144",Lazio,Viterbo,Prima Repubblica (Roma),Periodo Repubblicano (Roma)
"531",CLA58,Pit 181 - context 228,Tarquinia - Palazzo Vitelleschi (settlement),"81",micro,1390 AD,"3",settlement,,Tarquinia - Palazzo Vitelleschi,,"319",,,"Clark, G.,_Costantini, L.,_Finetti, A.,_Giorgi, J.,_Jones, A.,_Reese, D.,_Sutherland, S.,_Whitehouse, D._1989_The food refuse of an affluent urban household in the late fourteenth century: Faunal and botanical remains from the Palazzo Vitelleschi, Tarquinia (Viterbo)_Papers of the British School at Rome, 57_200-321",Lazio,Viterbo,Basso Medioevo,Medioevo
"532",CLA58,Pit 27 - context 35,Tarquinia - Palazzo Vitelleschi (settlement),"81",micro,1150-1390 AD,"3",settlement,,Tarquinia - Palazzo Vitelleschi,,"319",,,"Clark, G.,_Costantini, L.,_Finetti, A.,_Giorgi, J.,_Jones, A.,_Reese, D.,_Sutherland, S.,_Whitehouse, D._1989_The food refuse of an affluent urban household in the late fourteenth century: Faunal and botanical remains from the Palazzo Vitelleschi, Tarquinia (Viterbo)_Papers of the British School at Rome, 57_200-321",Lazio,Viterbo,,Medioevo
"533",CLA58,Pit 181 - context 236,Tarquinia - Palazzo Vitelleschi (settlement),"81",micro,1390 AD,"3",settlement,,Tarquinia - Palazzo Vitelleschi,,"319",,,"Clark, G.,_Costantini, L.,_Finetti, A.,_Giorgi, J.,_Jones, A.,_Reese, D.,_Sutherland, S.,_Whitehouse, D._1989_The food refuse of an affluent urban household in the late fourteenth century: Faunal and botanical remains from the Palazzo Vitelleschi, Tarquinia (Viterbo)_Papers of the British School at Rome, 57_200-321",Lazio,Viterbo,Basso Medioevo,Medioevo
"534",CLA58,Pit 179 - context 204,Tarquinia - Palazzo Vitelleschi (settlement),"81",micro,1150-1390 AD,"3",settlement,,Tarquinia - Palazzo Vitelleschi,,"319",,,"Clark, G.,_Costantini, L.,_Finetti, A.,_Giorgi, J.,_Jones, A.,_Reese, D.,_Sutherland, S.,_Whitehouse, D._1989_The food refuse of an affluent urban household in the late fourteenth century: Faunal and botanical remains from the Palazzo Vitelleschi, Tarquinia (Viterbo)_Papers of the British School at Rome, 57_200-321",Lazio,Viterbo,,Medioevo
"535",CLA58,Pit 181 - context 242,Tarquinia - Palazzo Vitelleschi (settlement),"81",micro,1150-1390 AD,"3",settlement,,Tarquinia - Palazzo Vitelleschi,,"319",,,"Clark, G.,_Costantini, L.,_Finetti, A.,_Giorgi, J.,_Jones, A.,_Reese, D.,_Sutherland, S.,_Whitehouse, D._1989_The food refuse of an affluent urban household in the late fourteenth century: Faunal and botanical remains from the Palazzo Vitelleschi, Tarquinia (Viterbo)_Papers of the British School at Rome, 57_200-321",Lazio,Viterbo,,Medioevo
"536",CLA58,Pit 181 - context 230,Tarquinia - Palazzo Vitelleschi (settlement),"81",micro,1390 AD,"3",settlement,,Tarquinia - Palazzo Vitelleschi,,"319",,,"Clark, G.,_Costantini, L.,_Finetti, A.,_Giorgi, J.,_Jones, A.,_Reese, D.,_Sutherland, S.,_Whitehouse, D._1989_The food refuse of an affluent urban household in the late fourteenth century: Faunal and botanical remains from the Palazzo Vitelleschi, Tarquinia (Viterbo)_Papers of the British School at Rome, 57_200-321",Lazio,Viterbo,Basso Medioevo,Medioevo
"537",CLA58,Pit 181 - context 237,Tarquinia - Palazzo Vitelleschi (settlement),"81",micro,1390 AD,"3",settlement,,Tarquinia - Palazzo Vitelleschi,,"319",,,"Clark, G.,_Costantini, L.,_Finetti, A.,_Giorgi, J.,_Jones, A.,_Reese, D.,_Sutherland, S.,_Whitehouse, D._1989_The food refuse of an affluent urban household in the late fourteenth century: Faunal and botanical remains from the Palazzo Vitelleschi, Tarquinia (Viterbo)_Papers of the British School at Rome, 57_200-321",Lazio,Viterbo,Basso Medioevo,Medioevo
"539",CLA58,Pit 4 - context 18,Tarquinia - Palazzo Vitelleschi (settlement),"81",micro,1390 AD,"3",settlement,,Tarquinia - Palazzo Vitelleschi,,"319",,,"Clark, G.,_Costantini, L.,_Finetti, A.,_Giorgi, J.,_Jones, A.,_Reese, D.,_Sutherland, S.,_Whitehouse, D._1989_The food refuse of an affluent urban household in the late fourteenth century: Faunal and botanical remains from the Palazzo Vitelleschi, Tarquinia (Viterbo)_Papers of the British School at Rome, 57_200-321",Lazio,Viterbo,Basso Medioevo,Medioevo
"541",CLA58,Pit 181 - context 243,Tarquinia - Palazzo Vitelleschi (settlement),"81",micro,1150-1390 AD,"3",settlement,,Tarquinia - Palazzo Vitelleschi,,"319",,,"Clark, G.,_Costantini, L.,_Finetti, A.,_Giorgi, J.,_Jones, A.,_Reese, D.,_Sutherland, S.,_Whitehouse, D._1989_The food refuse of an affluent urban household in the late fourteenth century: Faunal and botanical remains from the Palazzo Vitelleschi, Tarquinia (Viterbo)_Papers of the British School at Rome, 57_200-321",Lazio,Viterbo,,Medioevo
"542",CLA58,Pit 9 - context 20,Tarquinia - Palazzo Vitelleschi (settlement),"81",micro,1390 AD,"3",settlement,,Tarquinia - Palazzo Vitelleschi,,"319",,,"Clark, G.,_Costantini, L.,_Finetti, A.,_Giorgi, J.,_Jones, A.,_Reese, D.,_Sutherland, S.,_Whitehouse, D._1989_The food refuse of an affluent urban household in the late fourteenth century: Faunal and botanical remains from the Palazzo Vitelleschi, Tarquinia (Viterbo)_Papers of the British School at Rome, 57_200-321",Lazio,Viterbo,Basso Medioevo,Medioevo
"543",CLA58,Pit 181 - context 234,Tarquinia - Palazzo Vitelleschi (settlement),"81",micro,1390 AD,"3",settlement,,Tarquinia - Palazzo Vitelleschi,,"319",,,"Clark, G.,_Costantini, L.,_Finetti, A.,_Giorgi, J.,_Jones, A.,_Reese, D.,_Sutherland, S.,_Whitehouse, D._1989_The food refuse of an affluent urban household in the late fourteenth century: Faunal and botanical remains from the Palazzo Vitelleschi, Tarquinia (Viterbo)_Papers of the British School at Rome, 57_200-321",Lazio,Viterbo,Basso Medioevo,Medioevo
"546",CLA57,Edificio β ,Tarquinia (sacred),"70",micro,(end of the fourth century BCE to the beginning of the third century BCE,"3",sacred,,Tarquinia,,"318",,,"Patrizi, G.,_Rageot, M.,_Cafisso, S.,_Pennetta, A.,_Fiorini, L.,_De Benedetto, G. E.,_Spiteri, C.,_Fiorentino, G._2024_Signs of the sacred at the sanctuary of Gravisca, Italy: reconstruction of an Etruscan ritual through a multidisciplinary approach. Archaeometry",Lazio,Viterbo,Prima Repubblica (Roma),Periodo Repubblicano (Roma)
"548",CLA58,Pit 4 - context 19,Tarquinia - Palazzo Vitelleschi (settlement),"81",micro,1390 AD,"3",settlement,,Tarquinia - Palazzo Vitelleschi,,"319",,,"Clark, G.,_Costantini, L.,_Finetti, A.,_Giorgi, J.,_Jones, A.,_Reese, D.,_Sutherland, S.,_Whitehouse, D._1989_The food refuse of an affluent urban household in the late fourteenth century: Faunal and botanical remains from the Palazzo Vitelleschi, Tarquinia (Viterbo)_Papers of the British School at Rome, 57_200-321",Lazio,Viterbo,Basso Medioevo,Medioevo
"563",CLA59,Drain fill - E142,Mazzano Romano - Mola di Monte Gelato (settlement),"550",micro,Roman period,"3",settlement,,Mazzano Romano - Mola di Monte Gelato,,"320",,,"Giorgi, J. A.,_Potter, T. W._King, A. C.,_1997_The charred plant remains_Excavations at the Mola di Monte Gelato, 11_407-411",Lazio,Viterbo,Età tardoimperiale,Periodo Imperiale (Roma)
"578",CLA59,Ash - D337,Mazzano Romano - Mola di Monte Gelato (settlement),"550",micro,Phase 5 - Early Medieval,"3",settlement,,Mazzano Romano - Mola di Monte Gelato,,"320",,,"Giorgi, J. A.,_Potter, T. W._King, A. C.,_1997_The charred plant remains_Excavations at the Mola di Monte Gelato, 11_407-411",Lazio,Viterbo,Alto Medioevo,Medioevo
"625",CLA72,Vessel A (Santa Severa - Pyrgi - well),Santa Severa - Pyrgi - well,"84",micro,,"3",underwater,,,,"827",,,"Kodýdková, K.,_Beneš, J.,_Komárková, V.,_Paclíková, K._2013_Pilot archaeobotanical analysis of the sediment the well 112 in Pyrgi, Santa Severa_Archaeologia maritima mediterranea: International Journal on Underwater Archaeology: 10, 2013_181-190",Lazio,Roma,Periodo Etrusco Arcaico,Periodo Etrusco
"630",CLA73,South well - cut 10,Santa Severa - Pyrgi - temples (sacred),"626",micro,,"3",sacred,,,,"828",,,"Follieri, M.,_Coccolini, G.B.L.,_1980_I legni dei pozzi del tempio A nel santuario etrusco di Pyrgi (S. Severa, Roma)_Studi etruschi, 48_277-29",Lazio,Roma,Periodo Etrusco Arcaico,Periodo Etrusco
"632",CLA73,West well - cut 6,Santa Severa - Pyrgi - temples (sacred),"626",micro,,"3",sacred,,,,"828",,,"Follieri, M.,_Coccolini, G.B.L.,_1980_I legni dei pozzi del tempio A nel santuario etrusco di Pyrgi (S. Severa, Roma)_Studi etruschi, 48_277-29",Lazio,Roma,Periodo Etrusco Arcaico,Periodo Etrusco
"635",CLA73,West well - cut 9,Santa Severa - Pyrgi - temples (sacred),"626",micro,,"3",sacred,,,,"828",,,"Follieri, M.,_Coccolini, G.B.L.,_1980_I legni dei pozzi del tempio A nel santuario etrusco di Pyrgi (S. Severa, Roma)_Studi etruschi, 48_277-29",Lazio,Roma,Periodo Etrusco Arcaico,Periodo Etrusco
"638",CLA75,Planting holes,Roma - Horti Lamiani (settlement),"637",micro,,"3",settlement,,Roma - Horti Lamiani,,"254",,,"Masi, A.,_Vignola, C.,_Lazzara, A.,_Moricca, C., Serlorenzi, M.,_ Ferrandes, A. F._2024_The first extensive study of an Imperial Roman Garden in the city of Rome: the Horti Lamiani_Vegetation History and Archaeobotany, 33(1)_111-120",Lazio,Roma,Età altoimperiale,Periodo Imperiale (Roma)
"639",CLA75,Filling deposits,Roma - Horti Lamiani (settlement),"637",micro,,"3",settlement,,Roma - Horti Lamiani,,"254",,,"Masi, A.,_Vignola, C.,_Lazzara, A.,_Moricca, C., Serlorenzi, M.,_ Ferrandes, A. F._2024_The first extensive study of an Imperial Roman Garden in the city of Rome: the Horti Lamiani_Vegetation History and Archaeobotany, 33(1)_111-120",Lazio,Roma,Età altoimperiale,Periodo Imperiale (Roma)
"640",CLA75,Plant pots,Roma - Horti Lamiani (settlement),"637",micro,,"3",settlement,,Roma - Horti Lamiani,,"254",,,"Masi, A.,_Vignola, C.,_Lazzara, A.,_Moricca, C., Serlorenzi, M.,_ Ferrandes, A. F._2024_The first extensive study of an Imperial Roman Garden in the city of Rome: the Horti Lamiani_Vegetation History and Archaeobotany, 33(1)_111-120",Lazio,Roma,Età altoimperiale,Periodo Imperiale (Roma)
"642",CLA76,Capanna protostorica di Fidene,,"641",micro,9th-8th century BC,"3",settlement,,Fidene,,"255",,,"Celant, A.,_De Santis, A._Merlo, R.,_De Grossi Mazzorin, J.,_1998_Fidene: una casa dell'Età del ferro. Mondadori Electa_1-47",Lazio,Roma,,Età del Ferro
"650",CLA81,undet. (Lago di Caterno),Lago di Caterno (underwater),"649",micro,Bronzo medio,"3",underwater,,Leopoli - Cencelle,,"260",,,"Costantini, L._2002_Italia centro-meridionale_Storia dell’agricoltura italiana, 1_221-233",Lazio,Viterbo,Età del Bronzo medio,Età del Bronzo
"675",CLA89,Context 517,Sant'Antonio - Cereveteri (sacred),"672",micro,6th-5th century BC,"3",sacred,,,,"836",,,"Izzet, V. E._2000_The Etruscan sanctuary at Cerveteri, Sant'Antonio: preliminary report of excavations 1995–8_Papers of the British School at Rome, 68_321-335",Lazio,Viterbo,Periodo Etrusco Arcaico,Periodo Etrusco
"676",CLA89,Context 552,Sant'Antonio - Cereveteri (sacred),"672",micro,6th-5th century BC,"3",sacred,,,,"836",,,"Izzet, V. E._2000_The Etruscan sanctuary at Cerveteri, Sant'Antonio: preliminary report of excavations 1995–8_Papers of the British School at Rome, 68_321-335",Lazio,Viterbo,Prima Repubblica (Roma),Periodo Repubblicano (Roma)
"677",CLA89,Context 521,Sant'Antonio - Cereveteri (sacred),"672",micro,6th-5th century BC,"3",sacred,,,,"836",,,"Izzet, V. E._2000_The Etruscan sanctuary at Cerveteri, Sant'Antonio: preliminary report of excavations 1995–8_Papers of the British School at Rome, 68_321-335",Lazio,Viterbo,Periodo Etrusco Arcaico,Periodo Etrusco
"682",CLA89,Context 835,Sant'Antonio - Cereveteri (funerary),"671",micro,6th-5th century BC,"3",funerary,,,,"836",,,"Izzet, V. E._2000_The Etruscan sanctuary at Cerveteri, Sant'Antonio: preliminary report of excavations 1995–8_Papers of the British School at Rome, 68_321-335",Lazio,Viterbo,Periodo Etrusco Arcaico,Periodo Etrusco
"683",CLA89,Context 151,Sant'Antonio - Cereveteri (sacred),"672",micro,6th-5th century BC,"3",sacred,,,,"836",,,"Izzet, V. E._2000_The Etruscan sanctuary at Cerveteri, Sant'Antonio: preliminary report of excavations 1995–8_Papers of the British School at Rome, 68_321-335",Lazio,Viterbo,Periodo Etrusco Arcaico,Periodo Etrusco
"684",CLA89,Context 536,Sant'Antonio - Cereveteri (sacred),"672",micro,6th-5th century BC,"3",sacred,,,,"836",,,"Izzet, V. E._2000_The Etruscan sanctuary at Cerveteri, Sant'Antonio: preliminary report of excavations 1995–8_Papers of the British School at Rome, 68_321-335",Lazio,Viterbo,Periodo Etrusco Arcaico,Periodo Etrusco
"687",CLA89,Context 568,Sant'Antonio - Cereveteri (sacred),"672",micro,6th-5th century BC,"3",sacred,,,,"836",,,"Izzet, V. E._2000_The Etruscan sanctuary at Cerveteri, Sant'Antonio: preliminary report of excavations 1995–8_Papers of the British School at Rome, 68_321-335",Lazio,Viterbo,Periodo Etrusco Arcaico,Periodo Etrusco
"693",CLA89,Context 803,Sant'Antonio - Cereveteri (sacred),"672",micro,6th-5th century BC,"3",sacred,,,,"836",,,"Izzet, V. E._2000_The Etruscan sanctuary at Cerveteri, Sant'Antonio: preliminary report of excavations 1995–8_Papers of the British School at Rome, 68_321-335",Lazio,Viterbo,Periodo Etrusco Arcaico,Periodo Etrusco
"699",CLA89,Context 809,Sant'Antonio - Cereveteri (sacred),"672",micro,6th-5th century BC,"3",sacred,,,,"836",,,"Izzet, V. E._2000_The Etruscan sanctuary at Cerveteri, Sant'Antonio: preliminary report of excavations 1995–8_Papers of the British School at Rome, 68_321-335",Lazio,Viterbo,Prima Repubblica (Roma),Periodo Repubblicano (Roma)
"702",CLA89,Context 508,Sant'Antonio - Cereveteri (sacred),"672",micro,6th-5th century BC,"3",sacred,,,,"836",,,"Izzet, V. E._2000_The Etruscan sanctuary at Cerveteri, Sant'Antonio: preliminary report of excavations 1995–8_Papers of the British School at Rome, 68_321-335",Lazio,Viterbo,Periodo Etrusco Arcaico,Periodo Etrusco
"704",CLA89,Context 516,Sant'Antonio - Cereveteri (sacred),"672",micro,6th-5th century BC,"3",sacred,,,,"836",,,"Izzet, V. E._2000_The Etruscan sanctuary at Cerveteri, Sant'Antonio: preliminary report of excavations 1995–8_Papers of the British School at Rome, 68_321-335",Lazio,Viterbo,Periodo Etrusco Arcaico,Periodo Etrusco
"707",CLA89,Context 845,Sant'Antonio - Cereveteri (sacred),"672",micro,6th-5th century BC,"3",sacred,,,,"836",,,"Izzet, V. E._2000_The Etruscan sanctuary at Cerveteri, Sant'Antonio: preliminary report of excavations 1995–8_Papers of the British School at Rome, 68_321-335",Lazio,Viterbo,Periodo Etrusco Arcaico,Periodo Etrusco
"736",CLA90,Sector III - undet. (Leopoli Cencelle),Leopoli - Cencelle (settlement),"731",micro,9th-15th century AD,"3",settlement,,,,"837",,,"Stasolla, F. R., Bougard, F., & Ermini, L. P. (2012). Leopoli-Cencelle: il quartiere sud-orientale. Fondazione Centro italiano di studi sull'alto Medioevo.",Lazio,Viterbo,,Medioevo
"752",CMA2,Saggio F - US 552,Madonna del Piano (settlement),"748",micro,epoca tardo romana/ alta medievale,"3",settlement,,Madonna del Piano,,"459",,,"Carra, M._2010_Il contributo dell’Archeobotanica: analisi paleocarpologica preliminare del saggio F_Archeologia nella Valle del Cesano da Suasa a Santa Maria in Portuno. Atti del Convegno per i venti anni di ricerche dell’Università di Bologna (Castelleone di Suasa, Corinaldo, San Lorenzo in Campo 18-19 Dicembre 2008)_Ante Quem_491-495",Marche,Ancona,"Alto Medioevo ; Età tardoimperiale","Medioevo ; Periodo Imperiale (Roma)"
"756",CMA2,Saggio F - US 525 ,Madonna del Piano (settlement),"748",micro,Età Romanica,"3",settlement,,Madonna del Piano,,"459",,,"Carra, M._2010_Il contributo dell’Archeobotanica: analisi paleocarpologica preliminare del saggio F_Archeologia nella Valle del Cesano da Suasa a Santa Maria in Portuno. Atti del Convegno per i venti anni di ricerche dell’Università di Bologna (Castelleone di Suasa, Corinaldo, San Lorenzo in Campo 18-19 Dicembre 2008)_Ante Quem_491-495 ; Kodýdková, K.,_Beneš, J.,_Komárková, V.,_Paclíková, K._2013_Pilot archaeobotanical analysis of the sediment the well 112 in Pyrgi, Santa Severa_Archaeologia mar",Marche,Ancona,Alto Medioevo,Medioevo
"757",CMA2,Saggio F - US 525A,Madonna del Piano (settlement),"748",micro,Età Romanica,"3",settlement,,Madonna del Piano,,"459",,,"Carra, M._2010_Il contributo dell’Archeobotanica: analisi paleocarpologica preliminare del saggio F_Archeologia nella Valle del Cesano da Suasa a Santa Maria in Portuno. Atti del Convegno per i venti anni di ricerche dell’Università di Bologna (Castelleone di Suasa, Corinaldo, San Lorenzo in Campo 18-19 Dicembre 2008)_Ante Quem_491-495",Marche,Ancona,Alto Medioevo,Medioevo
"758",CMA2,saggio F - US 525B,Madonna del Piano (settlement),"748",micro,Età Romanica,"3",settlement,,Madonna del Piano,,"459",,,"Carra, M._2010_Il contributo dell’Archeobotanica: analisi paleocarpologica preliminare del saggio F_Archeologia nella Valle del Cesano da Suasa a Santa Maria in Portuno. Atti del Convegno per i venti anni di ricerche dell’Università di Bologna (Castelleone di Suasa, Corinaldo, San Lorenzo in Campo 18-19 Dicembre 2008)_Ante Quem_491-495",Marche,Ancona,Alto Medioevo,Medioevo
"759",CMA2,saggio F - US 525C,Madonna del Piano (settlement),"748",micro,Età Romanica,"3",settlement,,Madonna del Piano,,"459",,,"Carra, M._2010_Il contributo dell’Archeobotanica: analisi paleocarpologica preliminare del saggio F_Archeologia nella Valle del Cesano da Suasa a Santa Maria in Portuno. Atti del Convegno per i venti anni di ricerche dell’Università di Bologna (Castelleone di Suasa, Corinaldo, San Lorenzo in Campo 18-19 Dicembre 2008)_Ante Quem_491-495",Marche,Ancona,Alto Medioevo,Medioevo
"772",CMA5,A8-CS2 - US303 (base),Monte Torto di Osimo (settlement),"770",micro,Abbandono dell'impianto di produzione di olio e vino(I sec d.C.),"3",settlement,productive function area,Monte Torto di Osimo,,"462",,,"Abbate Edlmann, M. L.,Giachi, G.,Mariotti, M._2001_I resti antracologici_Monte Torto di Osimo. L’impianto produttivo_Servizio Editoria della Soprintendenza Archeologica per le Marche_203-213 ; Abbate Edlmann, M. L.,_Giachi, G.,_Mariotti, M._2001_I resti antracologici_Monte Torto di Osimo. L’impianto produttivo_Servizio Editoria della Soprintendenza Archeologica per le Marche_203-213",Marche,Ancona,Età altoimperiale,Periodo Imperiale (Roma)
"773",CMA5,A7-US175c,Monte Torto di Osimo (settlement),"770",micro,Abbandono dell'impianto di produzione di olio e vino(I sec d.C.),"3",settlement,productive function area,Monte Torto di Osimo,,"462",,,"Abbate Edlmann, M. L.,Giachi, G.,Mariotti, M._2001_I resti antracologici_Monte Torto di Osimo. L’impianto produttivo_Servizio Editoria della Soprintendenza Archeologica per le Marche_203-213 ; Abbate Edlmann, M. L.,_Giachi, G.,_Mariotti, M._2001_I resti antracologici_Monte Torto di Osimo. L’impianto produttivo_Servizio Editoria della Soprintendenza Archeologica per le Marche_203-213",Marche,Ancona,Età altoimperiale,Periodo Imperiale (Roma)
"777",CMA5,A2??-ER1 - US202,Monte Torto di Osimo (settlement),"770",micro,Abbandono dell'impianto di produzione di olio e vino(I sec d.C.),"3",settlement,productive function area,Monte Torto di Osimo,,"462",,,"Abbate Edlmann, M. L.,Giachi, G.,Mariotti, M._2001_I resti antracologici_Monte Torto di Osimo. L’impianto produttivo_Servizio Editoria della Soprintendenza Archeologica per le Marche_203-213 ; Abbate Edlmann, M. L.,_Giachi, G.,_Mariotti, M._2001_I resti antracologici_Monte Torto di Osimo. L’impianto produttivo_Servizio Editoria della Soprintendenza Archeologica per le Marche_203-213",Marche,Ancona,Età altoimperiale,Periodo Imperiale (Roma)
"778",CMA5,A10-US287,Monte Torto di Osimo (settlement),"770",micro,IV fase di frequentazione (V sec d.C.),"3",settlement,storage area,Monte Torto di Osimo,,"462",,,"Abbate Edlmann, M. L.,Giachi, G.,Mariotti, M._2001_I resti antracologici_Monte Torto di Osimo. L’impianto produttivo_Servizio Editoria della Soprintendenza Archeologica per le Marche_203-213 ; Abbate Edlmann, M. L.,_Giachi, G.,_Mariotti, M._2001_I resti antracologici_Monte Torto di Osimo. L’impianto produttivo_Servizio Editoria della Soprintendenza Archeologica per le Marche_203-213",Marche,Ancona,,Tarda Antichità
"779",CMA5,A10-BT3 - US309,Monte Torto di Osimo (settlement),"770",micro,IV fase di frequentazione (V sec d.C.),"3",settlement,storage area,Monte Torto di Osimo,,"462",,,"Abbate Edlmann, M. L.,Giachi, G.,Mariotti, M._2001_I resti antracologici_Monte Torto di Osimo. L’impianto produttivo_Servizio Editoria della Soprintendenza Archeologica per le Marche_203-213 ; Abbate Edlmann, M. L.,_Giachi, G.,_Mariotti, M._2001_I resti antracologici_Monte Torto di Osimo. L’impianto produttivo_Servizio Editoria della Soprintendenza Archeologica per le Marche_203-213",Marche,Ancona,,Tarda Antichità
"791",CMO2,undet. (D85 - Santa Maria in Civita),Santa Maria in Civita (settlement),"790",micro,VI - VII sec d.C,"3",undet.,,D85 - Santa Maria in Civita,,"466",,,"Webley, D._ 1980_Excavations at D85 (Santa Maria in Civita): an early medieval hilltop settlement in Molise_Papers of the British School at Rome_48, 70-124",Molise,Campobasso,Alto Medioevo,Medioevo
"795",CMO2,Trench C - Deposit 93,Santa Maria in Civita (settlement),"790",micro,VI - VII sec d.C,"3",settlement,storage area,D85 - Santa Maria in Civita,,"466",,,"Van der Veen, M._1985_An early medieval hilltop settlement in Molise: the plant remains from D85_Papers of the British School at Rome, 53_211-224",Molise,Campobasso,Alto Medioevo,Medioevo
"796",CMO2,Trench C - Deposit 131,Santa Maria in Civita (settlement),"790",micro,VI - VII sec d.C,"3",settlement,storage area,D85 - Santa Maria in Civita,,"466",,,"Van der Veen, M._1985_An early medieval hilltop settlement in Molise: the plant remains from D85_Papers of the British School at Rome, 53_211-224",Molise,Campobasso,Alto Medioevo,Medioevo
"797",CMO2,Trench C - Deposit 133,Santa Maria in Civita (settlement),"790",micro,VI - VII sec d.C,"3",settlement,storage area,D85 - Santa Maria in Civita,,"466",,,"Van der Veen, M._1985_An early medieval hilltop settlement in Molise: the plant remains from D85_Papers of the British School at Rome, 53_211-224",Molise,Campobasso,Alto Medioevo,Medioevo
"800",CMO2,Trench D - Deposit 94,Santa Maria in Civita (settlement),"790",micro,VI - VII sec d.C,"3",settlement,storage area,D85 - Santa Maria in Civita,,"466",,,"Van der Veen, M._1985_An early medieval hilltop settlement in Molise: the plant remains from D85_Papers of the British School at Rome, 53_211-224",Molise,Campobasso,Alto Medioevo,Medioevo
"804",CMO2,Trench F - Deposit 99,Santa Maria in Civita (settlement),"790",micro,VI - VII sec d.C,"3",settlement,filling material,D85 - Santa Maria in Civita,,"466",,,"Van der Veen, M._1985_An early medieval hilltop settlement in Molise: the plant remains from D85_Papers of the British School at Rome, 53_211-224",Molise,Campobasso,Alto Medioevo,Medioevo
"805",CMO2,Trench F - Deposit 101,Santa Maria in Civita (settlement),"790",micro,VI - VII sec d.C,"3",settlement,filling material,D85 - Santa Maria in Civita,,"466",,,"Van der Veen, M._1985_An early medieval hilltop settlement in Molise: the plant remains from D85_Papers of the British School at Rome, 53_211-224",Molise,Campobasso,Alto Medioevo,Medioevo
"806",CMO2,Trench F - Deposit 105,Santa Maria in Civita (settlement),"790",micro,VI - VII sec d.C,"3",settlement,filling material,D85 - Santa Maria in Civita,,"466",,,"Van der Veen, M._1985_An early medieval hilltop settlement in Molise: the plant remains from D85_Papers of the British School at Rome, 53_211-224",Molise,Campobasso,Alto Medioevo,Medioevo
"807",CMO2,Trench F - Deposit 108,Santa Maria in Civita (settlement),"790",micro,VI - VII sec d.C,"3",settlement,filling material,D85 - Santa Maria in Civita,,"466",,,"Van der Veen, M._1985_An early medieval hilltop settlement in Molise: the plant remains from D85_Papers of the British School at Rome, 53_211-224",Molise,Campobasso,Alto Medioevo,Medioevo
"809",CMO3,Fondo del Fossato,Gerione (settlement),"101",micro,XI-XII sec d.C.,"3",settlement,,Gerione,,"467",,,"Carra, M._2010_Castello di Gerione: l’utilizzo delle risorse vegetali. Analisi dei macroresti prelevati nelle campagne di scavo 2008 e 2009_Castello di Gerione. Ricerche topografiche e scavi. Atlante tematico di Topografia Antica_159-174",Molise,Campobasso,Basso Medioevo,Medioevo
"840",CMO5,Pozzetto,San Vincenzo al Volturno (settlement),"839",micro,VIII - IX sec. d.C.,"3",settlement,filling material,San Vincenzo al Volturno,,"469",,,"Carannante A.,_De Rubeis, F.,_Marazzi, F._2008_Monasteri in Europa occidentale, secoli VIII-XI: topografia e strutture_Proceedings of the International Conference (Castel San Vincenzo, September 23rd–26th 2004, Vol. 95)_385-403",Molise,Isernia,Alto Medioevo,Medioevo
"844",CMO5,Scivolo,San Vincenzo al Volturno (settlement),"839",micro,VIII - IX sec. d.C.,"3",settlement,filling material,San Vincenzo al Volturno,,"469",,,"Carannante A.,_De Rubeis, F.,_Marazzi, F._2008_Monasteri in Europa occidentale, secoli VIII-XI: topografia e strutture_Proceedings of the International Conference (Castel San Vincenzo, September 23rd–26th 2004, Vol. 95)_385-403",Molise,Isernia,Alto Medioevo,Medioevo
"845",CMO5,undet. (San Vincenzo al Volturno),San Vincenzo al Volturno (settlement),"839",micro,IX - XI sec. d.C.,"3",undet.,,San Vincenzo al Volturno,,"469",,,"Carannante, A.,_Marazzi, F.,_Gobbi, A._2007_Il lavoro nella Regola. L'approvvigionamento alimentare e il cantiere edile a San Vincenzo al Volturno fra IX e XI secolo_QUADERNI DELLA RICERCA SCIENTIFICA, SERIE BENI CULTURALI 8_1-268",Molise,Isernia,,Medioevo
"858",CTO2,Votive Feature 1 and adjiacent beaten earth floor,Badia a Coltibuono - Cetamura (sacred),"857",micro,later part of II century BCE,"3",sacred,,Badia a Coltibuono - Cetamura,,"639",,,"Cottini, M._2009_Archaeobotanical analysis in Zone II. The Sanctuary of the Etruscan Artisans at Cetamura del Chianti_The Legacy of Alvaro Tracchi_175-87",Toscana,Arezzo,Periodo Tardo Repubblicano (Roma),Periodo Repubblicano (Roma)
"860",CTO2,Votive Features 2,Badia a Coltibuono - Cetamura (sacred),"857",micro,later part of II century BCE,"3",sacred,,Badia a Coltibuono - Cetamura,,"639",,,"Cottini, M._2009_Archaeobotanical analysis in Zone II. The Sanctuary of the Etruscan Artisans at Cetamura del Chianti_The Legacy of Alvaro Tracchi_175-87",Toscana,Arezzo,Periodo Tardo Repubblicano (Roma),Periodo Repubblicano (Roma)
"862",CTO2,Near Votive Features 4,Badia a Coltibuono - Cetamura (sacred),"857",micro,later part of II century BCE,"3",sacred,,Badia a Coltibuono - Cetamura,,"639",,,"Cottini, M._2009_Archaeobotanical analysis in Zone II. The Sanctuary of the Etruscan Artisans at Cetamura del Chianti_The Legacy of Alvaro Tracchi_175-87",Toscana,Arezzo,Periodo Tardo Repubblicano (Roma),Periodo Repubblicano (Roma)
"867",CTO3,Area B of the Bell Beaker settlement Olmi 1(Layer 8C),Sesto Fiorentino (settlement),"866",micro,,"3",settlement,,Sesto Fiorentino,,"640",,,"Carra, M._2006_Plant macroremains from Olmi 1 (Sesto Fiorentino, Florence). Preliminary study_Bell Beaker in Everyday Life. Proceedings of the 10th Meeting ‘‘Archéologie et Gobelets’’Held in Florence, Siena and Villanuova sul Chiusi_59-66",Toscana,Firenze,,da identificare
"868",CTO3,Area B of the Bell Beaker settlement Olmi 1(Layer 12A),Sesto Fiorentino (settlement),"866",micro,,"3",settlement,,Sesto Fiorentino,,"640",,,"Carra, M._2006_Plant macroremains from Olmi 1 (Sesto Fiorentino, Florence). Preliminary study_Bell Beaker in Everyday Life. Proceedings of the 10th Meeting ‘‘Archéologie et Gobelets’’Held in Florence, Siena and Villanuova sul Chiusi_59-66",Toscana,Firenze,Età del Bronzo antico,Età del Bronzo
"869",CTO3,Area B of the Bell Beaker settlement Olmi 1(Structure 1),Sesto Fiorentino (settlement),"866",micro,,"3",settlement,,Sesto Fiorentino,,"640",,,"Carra, M._2006_Plant macroremains from Olmi 1 (Sesto Fiorentino, Florence). Preliminary study_Bell Beaker in Everyday Life. Proceedings of the 10th Meeting ‘‘Archéologie et Gobelets’’Held in Florence, Siena and Villanuova sul Chiusi_59-66",Toscana,Firenze,Età del Bronzo antico,Età del Bronzo
"871",CTO3,Area B of the Bell Beaker settlement Olmi 1(Structure 3),Sesto Fiorentino (settlement),"866",micro,,"3",settlement,,Sesto Fiorentino,,"640",,,"Carra, M._2006_Plant macroremains from Olmi 1 (Sesto Fiorentino, Florence). Preliminary study_Bell Beaker in Everyday Life. Proceedings of the 10th Meeting ‘‘Archéologie et Gobelets’’Held in Florence, Siena and Villanuova sul Chiusi_59-66",Toscana,Firenze,Età del Bronzo antico,Età del Bronzo
"873",CTO5,L. 647(Pit 0),Firenze - Via de' Castellani (settlement),"872",micro,,"3",settlement,,Firenze - Via de' Castellani,,"642",,,"Mariotti Lippi, M.,_Bellini, C.,_Mori Secci, M.,_Gonnelli, T.,_Pallecchi, P._2015_Archaeobotany in Florence (Italy): landscape and urban development from the late Roman to the Middle Ages_Plant Biosystems-An International Journal Dealing with all Aspects of Plant Biology, 149(1)_216-227",Toscana,Firenze,Basso Medioevo,Medioevo
"874",CTO5,L. 649(Pit 1),Firenze - Via de' Castellani (settlement),"872",micro,V-VI sec.,"3",settlement,,Firenze - Via de' Castellani,,"642",,,"Mariotti Lippi, M.,_Bellini, C.,_Mori Secci, M.,_Gonnelli, T.,_Pallecchi, P._2015_Archaeobotany in Florence (Italy): landscape and urban development from the late Roman to the Middle Ages_Plant Biosystems-An International Journal Dealing with all Aspects of Plant Biology, 149(1)_216-227",Toscana,Firenze,Basso Medioevo,Medioevo
"875",CTO5,L. 632(Pit 1),Firenze - Via de' Castellani (settlement),"872",micro,V-VI sec.,"3",settlement,,Firenze - Via de' Castellani,,"642",,,"Mariotti Lippi, M.,_Bellini, C.,_Mori Secci, M.,_Gonnelli, T.,_Pallecchi, P._2015_Archaeobotany in Florence (Italy): landscape and urban development from the late Roman to the Middle Ages_Plant Biosystems-An International Journal Dealing with all Aspects of Plant Biology, 149(1)_216-227",Toscana,Firenze,Basso Medioevo,Medioevo
"876",CTO5,L. 645(Pit 2),Firenze - Via de' Castellani (settlement),"872",micro,,"3",settlement,,Firenze - Via de' Castellani,,"642",,,"Mariotti Lippi, M.,_Bellini, C.,_Mori Secci, M.,_Gonnelli, T.,_Pallecchi, P._2015_Archaeobotany in Florence (Italy): landscape and urban development from the late Roman to the Middle Ages_Plant Biosystems-An International Journal Dealing with all Aspects of Plant Biology, 149(1)_216-227",Toscana,Firenze,Basso Medioevo,Medioevo
"877",CTO5,L. 641(Pit 2),Firenze - Via de' Castellani (settlement),"872",micro,,"3",settlement,,Firenze - Via de' Castellani,,"642",,,"Mariotti Lippi, M.,_Bellini, C.,_Mori Secci, M.,_Gonnelli, T.,_Pallecchi, P._2015_Archaeobotany in Florence (Italy): landscape and urban development from the late Roman to the Middle Ages_Plant Biosystems-An International Journal Dealing with all Aspects of Plant Biology, 149(1)_216-227",Toscana,Firenze,Basso Medioevo,Medioevo
"878",CTO5,L. 633(Dumping ground),Firenze - Via de' Castellani (settlement),"872",micro,14th century,"3",settlement,,Firenze - Via de' Castellani,,"642",,,"Mariotti Lippi, M.,_Bellini, C.,_Mori Secci, M.,_Gonnelli, T.,_Pallecchi, P._2015_Archaeobotany in Florence (Italy): landscape and urban development from the late Roman to the Middle Ages_Plant Biosystems-An International Journal Dealing with all Aspects of Plant Biology, 149(1)_216-227",Toscana,Firenze,Basso Medioevo,Medioevo
"880",CTO6,Circular Pit(SLG1),Firenze (settlement),"879",micro,Middle Bronze Age,"3",settlement,,Firenze,,"643",,,"Lippi, M. M.,_Bellini, C.,_Secci, M. M.,_Gonnelli, T_2009_Comparing seeds/fruits and pollen from a Middle Bronze Age pit in Florence (Italy)_Journal of Archaeological Science, 36(5)_1135-1141 ; Lippi, M. M.,_Bellini, C.,_Secci, M. M.,_Gonnelli, T_2009_Comparing seeds/fruits and pollen from a Middle Bronze Age pit in Florence (Italy)_Journal of Archaeological Science, 36(5)_1135-1141 Mariotti Lippi, M.,_Bellini, C.,_Gonnelli, T.,_Secci, M.M.,_Pallecchi, P.,_2012_From ceuntryside to city: archaeob",Toscana,Firenze,Età del Bronzo medio,Età del Bronzo
"881",CTO6,Circular Pit(SLG2),Firenze (settlement),"879",micro,Middle Bronze Age,"3",settlement,,Firenze,,"643",,,"Lippi, M. M.,_Bellini, C.,_Secci, M. M.,_Gonnelli, T_2009_Comparing seeds/fruits and pollen from a Middle Bronze Age pit in Florence (Italy)_Journal of Archaeological Science, 36(5)_1135-1141 Mariotti Lippi, M.,_Bellini, C.,_Gonnelli, T.,_Secci, M.M.,_Pallecchi, P.,_2012_From ceuntryside to city: archaeobotanical analyses in Florence (Italy) since its origin to the Middle Ages_Japanese Journal of Palynelogy, 58 (Special Issue)_140Mariotti Lippi, M.,_Bellini, C.,_Mori Secci, M._2010_Palaeovegetat",Toscana,Firenze,Età del Bronzo medio,Età del Bronzo
"953",CTO10,Etruscan Farmhouse (Room D-US 268/D-Area A),Poggio Tondo - Pian d'Alma (settlement),"900",micro,VI century BC,"3",settlement,,Poggio Tondo - Pian d'Alma,,"647",,,"Mariotti, M.,_Di Tommaso, P. L.,_Giachi, G.,_Mori Secci, M.,_Paci, S._2003_Archaeobotanical investigations into an Etruscan farmhouse at Pian d’Alma (Grosseto, Italy)_Atti Della Società Toscana Di Scienze Naturali Residente In Pisa. Memorie. Serie B, 109_159-165",Toscana,Grosseto,Periodo Etrusco Arcaico,Periodo Etrusco
"954",CTO11,US 10055,Podere Marzuolo (settlement),"105",micro,Phase 2(50-70 AD),"3",settlement,,Podere Marzuolo,,"648",,,"Mercuri, A.M.,_Rattighieri, E.,_Rinaldi, R._2021_The Roman Peasant Project 2009-2014: Excavating the Roman Rural Poor (Vol. 154)_University of Pennsylvania Press_317-336",Toscana,Grosseto,Età altoimperiale,Periodo Imperiale (Roma)
"957",CTO11,US 11032,Podere Marzuolo (settlement),"105",micro,Phase 3(Late II- early III century AD),"3",settlement,,Podere Marzuolo,,"648",,,"Mercuri, A.M.,_Rattighieri, E.,_Rinaldi, R._2021_The Roman Peasant Project 2009-2014: Excavating the Roman Rural Poor (Vol. 154)_University of Pennsylvania Press_317-336",Toscana,Grosseto,Età altoimperiale,Periodo Imperiale (Roma)
"958",CTO11,US 11012,Podere Marzuolo (settlement),"105",micro,Phase 1(30-10 BC),"3",settlement,,Podere Marzuolo,,"648",,,"Mercuri, A.M.,_Rattighieri, E.,_Rinaldi, R._2021_The Roman Peasant Project 2009-2014: Excavating the Roman Rural Poor (Vol. 154)_University of Pennsylvania Press_317-336",Toscana,Grosseto,Periodo Tardo Repubblicano (Roma),Periodo Repubblicano (Roma)
"959",CTO11,US 11040,Podere Marzuolo (settlement),"105",micro,Phase 1(30-10 BC),"3",settlement,,Podere Marzuolo,,"648",,,"Mercuri, A.M.,_Rattighieri, E.,_Rinaldi, R._2021_The Roman Peasant Project 2009-2014: Excavating the Roman Rural Poor (Vol. 154)_University of Pennsylvania Press_317-336",Toscana,Grosseto,Periodo Tardo Repubblicano (Roma),Periodo Repubblicano (Roma)
"962",CTO11,US 10003,Podere Marzuolo (settlement),"105",micro,Phase 2(50-70 AD),"3",settlement,,Podere Marzuolo,,"648",,,"Mercuri, A.M.,_Rattighieri, E.,_Rinaldi, R._2021_The Roman Peasant Project 2009-2014: Excavating the Roman Rural Poor (Vol. 154)_University of Pennsylvania Press_317-336",Toscana,Grosseto,Età altoimperiale,Periodo Imperiale (Roma)
"963",CTO11,US 10012,Podere Marzuolo (settlement),"105",micro,Phase 2(50-70 AD),"3",settlement,,Podere Marzuolo,,"648",,,"Mercuri, A.M.,_Rattighieri, E.,_Rinaldi, R._2021_The Roman Peasant Project 2009-2014: Excavating the Roman Rural Poor (Vol. 154)_University of Pennsylvania Press_317-336",Toscana,Grosseto,Età altoimperiale,Periodo Imperiale (Roma)
"970",CTO11,US 10130,Podere Marzuolo (settlement),"105",micro,Phase 2(50-70 AD),"3",settlement,,Podere Marzuolo,,"648",,,"Mercuri, A.M.,_Rattighieri, E.,_Rinaldi, R._2021_The Roman Peasant Project 2009-2014: Excavating the Roman Rural Poor (Vol. 154)_University of Pennsylvania Press_317-336",Toscana,Grosseto,Età altoimperiale,Periodo Imperiale (Roma)
"971",CTO11,US 10135,Podere Marzuolo (settlement),"105",micro,Phase 2(50-70 AD),"3",settlement,,Podere Marzuolo,,"648",,,"Mercuri, A.M.,_Rattighieri, E.,_Rinaldi, R._2021_The Roman Peasant Project 2009-2014: Excavating the Roman Rural Poor (Vol. 154)_University of Pennsylvania Press_317-336",Toscana,Grosseto,Età altoimperiale,Periodo Imperiale (Roma)
"972",CTO11,US 14008,Podere Marzuolo (settlement),"105",micro,Phase 2(50-70 AD),"3",settlement,,Podere Marzuolo,,"648",,,"Mercuri, A.M.,_Rattighieri, E.,_Rinaldi, R._2021_The Roman Peasant Project 2009-2014: Excavating the Roman Rural Poor (Vol. 154)_University of Pennsylvania Press_317-336",Toscana,Grosseto,Età altoimperiale,Periodo Imperiale (Roma)
"973",CTO11,US 11008,Podere Marzuolo (settlement),"105",micro,Phase 3(Late II- early III century AD),"3",settlement,,Podere Marzuolo,,"648",,,"Mercuri, A.M.,_Rattighieri, E.,_Rinaldi, R._2021_The Roman Peasant Project 2009-2014: Excavating the Roman Rural Poor (Vol. 154)_University of Pennsylvania Press_317-336",Toscana,Grosseto,Età altoimperiale,Periodo Imperiale (Roma)
"975",CTO11,US 11033,Podere Marzuolo (settlement),"105",micro,Phase 3(Late II- early III century AD),"3",settlement,,Podere Marzuolo,,"648",,,"Mercuri, A.M.,_Rattighieri, E.,_Rinaldi, R._2021_The Roman Peasant Project 2009-2014: Excavating the Roman Rural Poor (Vol. 154)_University of Pennsylvania Press_317-336",Toscana,Grosseto,Età altoimperiale,Periodo Imperiale (Roma)
"984",CTO13,"inside the building(L6002; L6004; L6005; L6011; L6012)",Poggio dell'Amore (settlement),"983",micro,late II century B to the first half of the I century AD,"3",settlement,,Poggio dell'Amore,,"650",,,"Rattighieri, E.,_Rinaldi, R.,_Bowes, K._Mercuri, A. M._2013_Land use from seasonal archaeological sites: the archaeobotanical evidence of small Roman farmhouses in cinigiano, south-eastern Tuscany-central Italy_Annali di Botanica, 3_207-215. Mercuri, A. M.,_Rattighieri, E.,_Rinaldi, R._2020_Poggio dell'Amore-Botanical materials_The Roman Peasant Project 2009-2014. Excavating the Roman Rural Poor (Vol. 1,). University of Pennsylvania Museum of Archaeology and Anthropology_195-201",Toscana,Grosseto,Periodo Tardo Repubblicano (Roma),Periodo Repubblicano (Roma)
"986",CTO14,Area 1(Structure/yard-US 8003),Podere Terrato (settlement),"985",micro,,"3",settlement,,Podere Terrato,,"651",,,"Mercuri, A. M.,_Rattighieri, E.,_Rinaldi, R._2020_San Martino-Botanical materials_The Roman Peasant Project 2009-2014. Excavating the Roman Rural Poor (Vol. 1). University of Pennsylvania Museum of Archaeology and Anthropology_173-179",Toscana,Grosseto,"Età altoimperiale ; Periodo Tardo Repubblicano (Roma)","Periodo Imperiale (Roma) ; Periodo Repubblicano (Roma)"
"990",CTO14,Area 2(Drain)-US 8022),Podere Terrato (settlement),"985",micro,,"3",settlement,,Podere Terrato,,"651",,,"Mercuri, A. M.,_Rattighieri, E.,_Rinaldi, R._2020_San Martino-Botanical materials_The Roman Peasant Project 2009-2014. Excavating the Roman Rural Poor (Vol. 1). University of Pennsylvania Museum of Archaeology and Anthropology_173-179",Toscana,Grosseto,"Età altoimperiale ; Periodo Tardo Repubblicano (Roma)","Periodo Imperiale (Roma) ; Periodo Repubblicano (Roma)"
"991",CTO14,Area 2(Drain)-US 8028),Podere Terrato (settlement),"985",micro,,"3",settlement,,Podere Terrato,,"651",,,"Mercuri, A. M.,_Rattighieri, E.,_Rinaldi, R._2020_San Martino-Botanical materials_The Roman Peasant Project 2009-2014. Excavating the Roman Rural Poor (Vol. 1). University of Pennsylvania Museum of Archaeology and Anthropology_173-179",Toscana,Grosseto,"Età altoimperiale ; Periodo Tardo Repubblicano (Roma)","Periodo Imperiale (Roma) ; Periodo Repubblicano (Roma)"
"993",CTO15,Fill of the tank(US 5014),Case Nuove (settlement),"992",micro,I centuary AD,"3",settlement,,Case Nuove,,"652",,,"Vaccaro, E.,_Ghisleni, M.,_Arnoldus-Huyzendveld, A.,_Grey, C.,_Bowes, K.,_MacKinnon, M.,_Mercuri, A.M.,_Pecci, A.,_Cau Ontiveros, M.A.,_Rattigheri, E.,_Rinaldi, R._2013_Excavating the Roman peasant II: excavations at Case Nuove, Cinigiano (GR) 1_Papers of the British School at Rome, 81_129-179",Toscana,Grosseto,Età altoimperiale,Periodo Imperiale (Roma)
"994",CTO15,Fill of the cistern(US 5048),Case Nuove (settlement),"992",micro,Early III century AD,"3",settlement,,Case Nuove,,"652",,,"Vaccaro, E.,_Ghisleni, M.,_Arnoldus-Huyzendveld, A.,_Grey, C.,_Bowes, K.,_MacKinnon, M.,_Mercuri, A.M.,_Pecci, A.,_Cau Ontiveros, M.A.,_Rattigheri, E.,_Rinaldi, R._2013_Excavating the Roman peasant II: excavations at Case Nuove, Cinigiano (GR) 1_Papers of the British School at Rome, 81_129-179",Toscana,Grosseto,Età tardoimperiale,Periodo Imperiale (Roma)
"995",CTO15,Bottom of the well(US 5050),Case Nuove (settlement),"992",micro,medieval period,"3",settlement,,Case Nuove,,"652",,,"Vaccaro, E.,_Ghisleni, M.,_Arnoldus-Huyzendveld, A.,_Grey, C.,_Bowes, K.,_MacKinnon, M.,_Mercuri, A.M.,_Pecci, A.,_Cau Ontiveros, M.A.,_Rattigheri, E.,_Rinaldi, R._2013_Excavating the Roman peasant II: excavations at Case Nuove, Cinigiano (GR) 1_Papers of the British School at Rome, 81_129-179",Toscana,Grosseto,,Medioevo
"996",CTO15,Square pit surface(US 5023),Case Nuove (settlement),"992",micro,late antique-first half of the fifth centuary AD,"3",settlement,,Case Nuove,,"652",,,"Vaccaro, E.,_Ghisleni, M.,_Arnoldus-Huyzendveld, A.,_Grey, C.,_Bowes, K.,_MacKinnon, M.,_Mercuri, A.M.,_Pecci, A.,_Cau Ontiveros, M.A.,_Rattigheri, E.,_Rinaldi, R._2013_Excavating the Roman peasant II: excavations at Case Nuove, Cinigiano (GR) 1_Papers of the British School at Rome, 81_129-179",Toscana,Grosseto,,Tarda Antichità
"997",CTO15,Square pit fill(US 5044),Case Nuove (settlement),"992",micro,late antique-first half of the fifth centuary AD,"3",settlement,,Case Nuove,,"652",,,"Vaccaro, E.,_Ghisleni, M.,_Arnoldus-Huyzendveld, A.,_Grey, C.,_Bowes, K.,_MacKinnon, M.,_Mercuri, A.M.,_Pecci, A.,_Cau Ontiveros, M.A.,_Rattigheri, E.,_Rinaldi, R._2013_Excavating the Roman peasant II: excavations at Case Nuove, Cinigiano (GR) 1_Papers of the British School at Rome, 81_129-179",Toscana,Grosseto,,Tarda Antichità
"1033",CTO20,Area C(US 109/1),Stagno - Pratini dell'Argin Traverso (settlement),"112",micro,Abandonment phase(XII–XI century BC)),"3",settlement,,Stagno - Pratini dell'Argin Traverso,,"657",,,"Giachi, G.,_Secci, M. M.,_Pignatelli, O.,_Gambogi, P.,_Lippi, M. M._2010_The prehistoric pile-dwelling settlement of Stagno (Leghorn, Italy): wood and food resource exploitation_Journal of Archaeological Science, 37(6)_1260-1268",Toscana,Livorno,Età del Bronzo recente,Età del Bronzo
"1038",CTO20,Area C(US 161),Stagno - Pratini dell'Argin Traverso (settlement),"112",micro,Pre-settlement phase(XII–XI century BC)),"3",settlement,,Stagno - Pratini dell'Argin Traverso,,"657",,,"Giachi, G.,_Secci, M. M.,_Pignatelli, O.,_Gambogi, P.,_Lippi, M. M._2010_The prehistoric pile-dwelling settlement of Stagno (Leghorn, Italy): wood and food resource exploitation_Journal of Archaeological Science, 37(6)_1260-1268",Toscana,Livorno,Età del Bronzo finale,Età del Bronzo
"1039",CTO20,Area C(US 163),Stagno - Pratini dell'Argin Traverso (settlement),"112",micro,Pre-settlement phase(XII–XI century BC)),"3",settlement,,Stagno - Pratini dell'Argin Traverso,,"657",,,"Giachi, G.,_Secci, M. M.,_Pignatelli, O.,_Gambogi, P.,_Lippi, M. M._2010_The prehistoric pile-dwelling settlement of Stagno (Leghorn, Italy): wood and food resource exploitation_Journal of Archaeological Science, 37(6)_1260-1268",Toscana,Livorno,Età del Bronzo finale,Età del Bronzo
"1040",CTO20,Area C(SU 109/2),Stagno - Pratini dell'Argin Traverso (settlement),"112",micro,settlement phase(XII–XI century BC)),"3",settlement,,Stagno - Pratini dell'Argin Traverso,,"657",,,"Giachi, G.,_Secci, M. M.,_Pignatelli, O.,_Gambogi, P.,_Lippi, M. M._2010_The prehistoric pile-dwelling settlement of Stagno (Leghorn, Italy): wood and food resource exploitation_Journal of Archaeological Science, 37(6)_1260-1268",Toscana,Livorno,Età del Bronzo recente,Età del Bronzo
"1041",CTO20,Area C(SU 159/1),Stagno - Pratini dell'Argin Traverso (settlement),"112",micro,settlement phase(XII–XI century BC)),"3",settlement,,Stagno - Pratini dell'Argin Traverso,,"657",,,"Giachi, G.,_Secci, M. M.,_Pignatelli, O.,_Gambogi, P.,_Lippi, M. M._2010_The prehistoric pile-dwelling settlement of Stagno (Leghorn, Italy): wood and food resource exploitation_Journal of Archaeological Science, 37(6)_1260-1268",Toscana,Livorno,Età del Bronzo recente,Età del Bronzo
"1042",CTO20,Area C(SU 159),Stagno - Pratini dell'Argin Traverso (settlement),"112",micro,settlement phase(XII–XI century BC)),"3",settlement,,Stagno - Pratini dell'Argin Traverso,,"657",,,"Giachi, G.,_Secci, M. M.,_Pignatelli, O.,_Gambogi, P.,_Lippi, M. M._2010_The prehistoric pile-dwelling settlement of Stagno (Leghorn, Italy): wood and food resource exploitation_Journal of Archaeological Science, 37(6)_1260-1268",Toscana,Livorno,Età del Bronzo recente,Età del Bronzo
"1043",CTO20,Area C(SU 109/5),Stagno - Pratini dell'Argin Traverso (settlement),"112",micro,abandonment phase(XII–XI century BC)),"3",settlement,,Stagno - Pratini dell'Argin Traverso,,"657",,,"Giachi, G.,_Secci, M. M.,_Pignatelli, O.,_Gambogi, P.,_Lippi, M. M._2010_The prehistoric pile-dwelling settlement of Stagno (Leghorn, Italy): wood and food resource exploitation_Journal of Archaeological Science, 37(6)_1260-1268",Toscana,Livorno,Età del Bronzo finale,Età del Bronzo
"1044",CTO20,Area C(SU 109/1),Stagno - Pratini dell'Argin Traverso (settlement),"112",micro,abandonment phase(XII–XI century BC)),"3",settlement,,Stagno - Pratini dell'Argin Traverso,,"657",,,"Giachi, G.,_Secci, M. M.,_Pignatelli, O.,_Gambogi, P.,_Lippi, M. M._2010_The prehistoric pile-dwelling settlement of Stagno (Leghorn, Italy): wood and food resource exploitation_Journal of Archaeological Science, 37(6)_1260-1268",Toscana,Livorno,Età del Bronzo finale,Età del Bronzo
"1045",CTO20,Area C(SU 109),Stagno - Pratini dell'Argin Traverso (settlement),"112",micro,abandonment phase(XII–XI century BC)),"3",settlement,,Stagno - Pratini dell'Argin Traverso,,"657",,,"Giachi, G.,_Secci, M. M.,_Pignatelli, O.,_Gambogi, P.,_Lippi, M. M._2010_The prehistoric pile-dwelling settlement of Stagno (Leghorn, Italy): wood and food resource exploitation_Journal of Archaeological Science, 37(6)_1260-1268",Toscana,Livorno,Età del Bronzo finale,Età del Bronzo
"1047",CTO20,Area D(SU 113/2),Stagno - Pratini dell'Argin Traverso (settlement),"112",micro,abandonment phase(XII–XI century BC)),"3",settlement,,Stagno - Pratini dell'Argin Traverso,,"657",,,"Giachi, G.,_Secci, M. M.,_Pignatelli, O.,_Gambogi, P.,_Lippi, M. M._2010_The prehistoric pile-dwelling settlement of Stagno (Leghorn, Italy): wood and food resource exploitation_Journal of Archaeological Science, 37(6)_1260-1268",Toscana,Livorno,Età del Bronzo finale,Età del Bronzo
"1048",CTO20,Area D(SU 113),Stagno - Pratini dell'Argin Traverso (settlement),"112",micro,abandonment phase(XII–XI century BC)),"3",settlement,,Stagno - Pratini dell'Argin Traverso,,"657",,,,Toscana,Livorno,Età del Bronzo finale,Età del Bronzo
"1054",CTO22,undet. (Donoratico - 4th-6th AD ),Donoratico (settlement),"1053",micro,4th-6th AD ,"3",settlement,,Donoratico,,"659",,,"Buonincontri, M.,_Allevato, E.,_Di Pasquale, G._2013_The problem of the alternating dominance of deciduous and evergreen vegetation: archaeo-anthracological data from Northern Maremma_Annali di Botanica, 3_165-171",Toscana,Livorno,,Tarda Antichità
"1059",CTO23,undet. (Populonia - half 1st BC),Populonia (settlement),"1056",micro,half 1st BC,"3",settlement,,Populonia,,"660",,,"Buonincontri, M.,_Allevato, E.,_Di Pasquale, G._2013_The problem of the alternating dominance of deciduous and evergreen vegetation: archaeo-anthracological data from Northern Maremma_Annali di Botanica, 3_165-171",Toscana,Livorno,Periodo Tardo Repubblicano (Roma),Periodo Repubblicano (Roma)
"1060",CTO23,undet. (Populonia - 11th-12th AD),Populonia (settlement),"1056",micro,11th-12th AD,"3",settlement,,Populonia,,"660",,,"Buonincontri, M.,_Allevato, E.,_Di Pasquale, G._2013_The problem of the alternating dominance of deciduous and evergreen vegetation: archaeo-anthracological data from Northern Maremma_Annali di Botanica, 3_165-171",Toscana,Livorno,Alto Medioevo,Medioevo
"1061",CTO23,undet. (Populonia - end 12th- half 13th BC),Populonia (settlement),"1056",micro,end 12th- half 13th BC,"3",settlement,,Populonia,,"660",,,"Buonincontri, M.,_Allevato, E.,_Di Pasquale, G._2013_The problem of the alternating dominance of deciduous and evergreen vegetation: archaeo-anthracological data from Northern Maremma_Annali di Botanica, 3_165-171",Toscana,Livorno,Età del Bronzo recente,Età del Bronzo
"1089",CTO25,Undet. (Gorfigliano - Phase 1b),Gorfigliano (settlement),"1087",micro,Phase 1b(VIII - X century),"3",settlement,,Gorfigliano,,"662",,,"Fontana, I. F.,_Menozzi, B. I.,_Montanari, C._2008_Charcoal as environmental and ethnological evidence from medieval archaeological sites in NW-Italy_Charcoals from the Past: Cultural and Palaeoenvironmental Implications: Proceedings of the Third International Meeting of Anthracology, Cavallino, Lecce (Italy), June 28th-July 1st 2004 (Vol. 1807)_105",Toscana,Lucca,Alto Medioevo,Medioevo
"1092",CTO25,Undet. (Gorfigliano - Phase 3b),Gorfigliano (settlement),"1087",micro,Phase 3b(XII-XV century),"3",settlement,,Gorfigliano,,"662",,,"Fontana, I. F.,_Menozzi, B. I.,_Montanari, C._2008_Charcoal as environmental and ethnological evidence from medieval archaeological sites in NW-Italy_Charcoals from the Past: Cultural and Palaeoenvironmental Implications: Proceedings of the Third International Meeting of Anthracology, Cavallino, Lecce (Italy), June 28th-July 1st 2004 (Vol. 1807)_105",Toscana,Lucca,Basso Medioevo,Medioevo
"1097",CTO25,Undet. (Gorfigliano - Phase 5a),Gorfigliano (settlement),"1087",micro,Phase 5a(XVII century),"3",settlement,,Gorfigliano,,"662",,,"Fontana, I. F.,_Menozzi, B. I.,_Montanari, C._2008_Charcoal as environmental and ethnological evidence from medieval archaeological sites in NW-Italy_Charcoals from the Past: Cultural and Palaeoenvironmental Implications: Proceedings of the Third International Meeting of Anthracology, Cavallino, Lecce (Italy), June 28th-July 1st 2004 (Vol. 1807)_105",Toscana,Lucca,,Periodo Moderno
"1110",CUM1,Context n° 22,San Marco (settlement),"1109",micro,Neolitico inferiore - 6900-6100 BP - VI millennio a.C.,"3",settlement,filling material probably derived from advanced stages of crop-processing and represents yhe residues from a number of activities - not necessarily connected or taking place in the same area.,San Marco,,"728",,,"Costantini L.,_Stancarelli M._1994_Origini: preistoria e protostoria delle civiltà antiche XVIII_149-244_Malone, C.,_Stoddart, S._1992_The neolithic site of San Marco, Gubbio (Perugia)_Umbria: survey and excavation 1985–7_Papers of the British School at Rome_60, 1-69 ; Costantini, L._2002_Italia centro-meridionale_Storia dell’agricoltura italiana, 1_221-233_Costantini L., Stancarelli M._1994_Origini: preistoria e protostoria delle civiltà anctiche XVIII_pp. 149-244_Malone, C.,_Stoddart, S._1992_",Umbria,Perugia,Neolitico Iniziale,Neolitico
"1235",CTO33,Montarrenti - Area 1000 ,Montarrenti,"1233",micro,XIII century ,"3",settlement,,,,"670",,,"Cantini, F._2003_Il Castello di Montarrenti: lo scavo archeologico, 1982-1987: per la storia della formazione del villaggio medievale in Toscana, secc. VII-XV_213-215",Toscana,Siena,Basso Medioevo,Medioevo
"3171",CAB6,Hercules cistern - US 605,Alba Fucens - Sanctuary of Hercules,"1157",micro,late 5th–early 6th century AD,"3",sacred,,,,"1",,,"Moricca, C.,_Russo, G.,_Iamonico, D.,_Ceccaroni, E.,_Favero, G.,_Sadori, L._2024_Food and Environment During the Late Roman Age at the Site of Alba Fucens (Abruzzi, Italy)_Plants, 13(20), 2991",Abruzzo,L'Aquila,Alto Medioevo,"Medioevo ; Tarda Antichità"
"3172",CAB6,Hercules cistern - US 606,Alba Fucens - Sanctuary of Hercules,"1157",micro,late 5th–early 6th century AD,"3",sacred,,,,"1",,,"Moricca, C.,_Russo, G.,_Iamonico, D.,_Ceccaroni, E.,_Favero, G.,_Sadori, L._2024_Food and Environment During the Late Roman Age at the Site of Alba Fucens (Abruzzi, Italy)_Plants, 13(20), 3021",Abruzzo,L'Aquila,Alto Medioevo,"Medioevo ; Tarda Antichità"
"3173",CAB6,Hercules cistern - US 608,Alba Fucens - Sanctuary of Hercules,"1157",micro,late 5th–early 6th century AD,"3",sacred,,,,"1",,,"Moricca, C.,_Russo, G.,_Iamonico, D.,_Ceccaroni, E.,_Favero, G.,_Sadori, L._2024_Food and Environment During the Late Roman Age at the Site of Alba Fucens (Abruzzi, Italy)_Plants, 13(20), 3032",Abruzzo,L'Aquila,Alto Medioevo,"Medioevo ; Tarda Antichità"
"3176",CAB6,Hercules cistern - US 612,Alba Fucens - Sanctuary of Hercules,"1157",micro,late 5th–early 6th century AD,"3",sacred,,,,"1",,,"Moricca, C.,_Russo, G.,_Iamonico, D.,_Ceccaroni, E.,_Favero, G.,_Sadori, L._2024_Food and Environment During the Late Roman Age at the Site of Alba Fucens (Abruzzi, Italy)_Plants, 13(20), 3060",Abruzzo,L'Aquila,Alto Medioevo,"Medioevo ; Tarda Antichità"
"3202",CTO27,US 28,Sorano - Filattiera - Phase IV,"1187",micro,III - IV d.C.,"3",settlement,,,,"664",,,"Rottoli, M.,_Negri, S._1986_I resti vegetali carbonizzati. Filattiera-Sorano: l�insediamento di et� romana e tardo antica scavi, 1995_198-212",Toscana,Massa Carrara,Età tardoimperiale,Periodo Imperiale (Roma)
"3203",CTO27,US 29,Sorano - Filattiera - Phase IV,"1187",micro,III - IV d.C.,"3",settlement,,,,"664",,,"Rottoli, M.,_Negri, S._1986_I resti vegetali carbonizzati. Filattiera-Sorano: l�insediamento di et� romana e tardo antica scavi, 1995_198-212",Toscana,Massa Carrara,Età tardoimperiale,Periodo Imperiale (Roma)
"3204",CTO27,US 38,Sorano - Filattiera - Phase IV,"1187",micro,III - IV d.C.,"3",settlement,,,,"664",,,"Rottoli, M.,_Negri, S._1986_I resti vegetali carbonizzati. Filattiera-Sorano: l�insediamento di et� romana e tardo antica scavi, 1995_198-212",Toscana,Massa Carrara,Età tardoimperiale,Periodo Imperiale (Roma)
"3205",CTO27,US 74,Sorano - Filattiera - Phase IV,"1187",micro,III - IV d.C.,"3",settlement,,,,"664",,,"Rottoli, M.,_Negri, S._1986_I resti vegetali carbonizzati. Filattiera-Sorano: l�insediamento di et� romana e tardo antica scavi, 1995_198-212",Toscana,Massa Carrara,Età tardoimperiale,Periodo Imperiale (Roma)
"3206",CTO27,US 77,Sorano - Filattiera - Phase IV,"1187",micro,V - VI d.C.,"3",settlement,,,,"664",,,"Rottoli, M.,_Negri, S._1986_I resti vegetali carbonizzati. Filattiera-Sorano: l�insediamento di et� romana e tardo antica scavi, 1995_198-212",Toscana,Massa Carrara,,Tarda Antichità
"3209",CTO27,US 80,Sorano - Filattiera - Phase IV,"1187",micro,V - VI d.C.,"3",settlement,,,,"664",,,"Rottoli, M.,_Negri, S._1986_I resti vegetali carbonizzati. Filattiera-Sorano: l�insediamento di et� romana e tardo antica scavi, 1995_198-212",Toscana,Massa Carrara,,Tarda Antichità
"3217",CTO27,US 71,Sorano - Filattiera - Phase IV,"1187",micro,V - VI d.C.,"3",settlement,,,,"664",,,"Rottoli, M.,_Negri, S._1986_I resti vegetali carbonizzati. Filattiera-Sorano: l�insediamento di et� romana e tardo antica scavi, 1995_198-212",Toscana,Massa Carrara,,Tarda Antichità
"3227",CTO27,US 46,Sorano - Filattiera - Phase VI,"1210",micro,II metà del II d.C. - III d.C.,"3",settlement,,,,"664",,,"Rottoli, M.,_Negri, S._1986_I resti vegetali carbonizzati. Filattiera-Sorano: l�insediamento di et� romana e tardo antica scavi, 1995_198-212",Toscana,Massa Carrara,Età altoimperiale,Periodo Imperiale (Roma)
"3247",CTO33,Montarrenti - Area 8000,Montarrenti,"1233",micro,XIII century ,"3",settlement,,,,"670",,,"Cantini, F._2003_Il Castello di Montarrenti: lo scavo archeologico, 1982-1987: per la storia della formazione del villaggio medievale in Toscana, secc. VII-XV_213-215",Toscana,Siena,Basso Medioevo,Medioevo
"3264",CTO34,US 1193,Miranduolo - Area 1,"1247",micro,IX - X century,"3",settlement,,,,"671",,,"Buonincontri, M. P.,_Di Falco, G.,_Moser, D.,_Donnini, D.,_Di Pasquale, G._2007_Il castello di Miranduolo (Siena): dati archeobotanici per il X-XI secolo_Atti Soc Nat Mat Modena, 137_355-372",Toscana,Siena,Alto Medioevo,Medioevo
"3287",CTO45,Well #1 - 112,Cetamura del Chianti - well #22,"1253",micro,,"3",sacred,,,,"678",,,"Mariotti Lippi,_M., Mori Secci,_M., Giachi,G.,_Bouby, L.,_Terral, J. F.,_Castiglioni, E.,_Cottini, M.,_de Grummond, N. T._2020_Plant remains in an Etruscan-Roman well at Cetamura del Chianti, Italy_Archaeological and Anthropological Sciences, 12(1)_35",Toscana,Siena,,Periodo Etrusco
"3288",CTO45,Well #1 - 110,Cetamura del Chianti - well #23,"1253",micro,,"3",sacred,,,,"678",,,"Mariotti Lippi,_M., Mori Secci,_M., Giachi,G.,_Bouby, L.,_Terral, J. F.,_Castiglioni, E.,_Cottini, M.,_de Grummond, N. T._2020_Plant remains in an Etruscan-Roman well at Cetamura del Chianti, Italy_Archaeological and Anthropological Sciences, 12(1)_35",Toscana,Siena,,Periodo Etrusco
"3294",CTO45,Well #1 - 94,Cetamura del Chianti - well #29,"1253",micro,,"3",sacred,,,,"678",,,"Mariotti Lippi,_M., Mori Secci,_M., Giachi,G.,_Bouby, L.,_Terral, J. F.,_Castiglioni, E.,_Cottini, M.,_de Grummond, N. T._2020_Plant remains in an Etruscan-Roman well at Cetamura del Chianti, Italy_Archaeological and Anthropological Sciences, 12(1)_35",Toscana,Siena,,da identificare
"3297",CTO45,Well #1 - 84,Cetamura del Chianti - well #32,"1253",micro,37-68 A.D.,"3",sacred,,,,"678",,,"Mariotti Lippi,_M., Mori Secci,_M., Giachi,G.,_Bouby, L.,_Terral, J. F.,_Castiglioni, E.,_Cottini, M.,_de Grummond, N. T._2020_Plant remains in an Etruscan-Roman well at Cetamura del Chianti, Italy_Archaeological and Anthropological Sciences, 12(1)_35",Toscana,Siena,Età altoimperiale,Periodo Imperiale (Roma)
"3315",CTO45,Well #1 - 106,Cetamura del Chianti - well #50,"1253",micro,,"3",sacred,,,,"678",,,"Mariotti Lippi,_M., Mori Secci,_M., Giachi,G.,_Bouby, L.,_Terral, J. F.,_Castiglioni, E.,_Cottini, M.,_de Grummond, N. T._2020_Plant remains in an Etruscan-Roman well at Cetamura del Chianti, Italy_Archaeological and Anthropological Sciences, 12(1)_35",Toscana,Siena,,Periodo Etrusco
"3316",CTO45,Well #1 - 89,Cetamura del Chianti - well #51,"1253",micro,,"3",sacred,,,,"678",,,"Mariotti Lippi,_M., Mori Secci,_M., Giachi,G.,_Bouby, L.,_Terral, J. F.,_Castiglioni, E.,_Cottini, M.,_de Grummond, N. T._2020_Plant remains in an Etruscan-Roman well at Cetamura del Chianti, Italy_Archaeological and Anthropological Sciences, 12(1)_35",Toscana,Siena,,da identificare
"3323",CTO45,Well #1 - 111,Cetamura del Chianti - well #58,"1253",micro,,"3",sacred,,,,"678",,,"Mariotti Lippi,_M., Mori Secci,_M., Giachi,G.,_Bouby, L.,_Terral, J. F.,_Castiglioni, E.,_Cottini, M.,_de Grummond, N. T._2020_Plant remains in an Etruscan-Roman well at Cetamura del Chianti, Italy_Archaeological and Anthropological Sciences, 12(1)_35",Toscana,Siena,,Periodo Etrusco
"3324",CTO45,Well #1 - 96,Cetamura del Chianti - well #59,"1253",micro,,"3",sacred,,,,"678",,,"Mariotti Lippi,_M., Mori Secci,_M., Giachi,G.,_Bouby, L.,_Terral, J. F.,_Castiglioni, E.,_Cottini, M.,_de Grummond, N. T._2020_Plant remains in an Etruscan-Roman well at Cetamura del Chianti, Italy_Archaeological and Anthropological Sciences, 12(1)_35",Toscana,Siena,,da identificare
"3325",CTO45,Well #1 - 83,Cetamura del Chianti - well #60,"1253",micro,,"3",sacred,,,,"678",,,"Mariotti Lippi,_M., Mori Secci,_M., Giachi,G.,_Bouby, L.,_Terral, J. F.,_Castiglioni, E.,_Cottini, M.,_de Grummond, N. T._2020_Plant remains in an Etruscan-Roman well at Cetamura del Chianti, Italy_Archaeological and Anthropological Sciences, 12(1)_35",Toscana,Siena,,da identificare
"3326",CTO45,Well #1 - 103,Cetamura del Chianti - well #61,"1253",micro,,"3",sacred,,,,"678",,,"Mariotti Lippi,_M., Mori Secci,_M., Giachi,G.,_Bouby, L.,_Terral, J. F.,_Castiglioni, E.,_Cottini, M.,_de Grummond, N. T._2020_Plant remains in an Etruscan-Roman well at Cetamura del Chianti, Italy_Archaeological and Anthropological Sciences, 12(1)_35",Toscana,Siena,,Periodo Etrusco
"3327",CTO45,Well #1 - 102,Cetamura del Chianti - well #62,"1253",micro,,"3",sacred,,,,"678",,,"Mariotti Lippi,_M., Mori Secci,_M., Giachi,G.,_Bouby, L.,_Terral, J. F.,_Castiglioni, E.,_Cottini, M.,_de Grummond, N. T._2020_Plant remains in an Etruscan-Roman well at Cetamura del Chianti, Italy_Archaeological and Anthropological Sciences, 12(1)_35",Toscana,Siena,,Periodo Etrusco
"3328",CTO45,Well #1 - 101,Cetamura del Chianti - well #63,"1253",micro,,"3",sacred,,,,"678",,,"Mariotti Lippi,_M., Mori Secci,_M., Giachi,G.,_Bouby, L.,_Terral, J. F.,_Castiglioni, E.,_Cottini, M.,_de Grummond, N. T._2020_Plant remains in an Etruscan-Roman well at Cetamura del Chianti, Italy_Archaeological and Anthropological Sciences, 12(1)_35",Toscana,Siena,,Periodo Etrusco
"3329",CTO45,Well #1 - 100,Cetamura del Chianti - well #64,"1253",micro,,"3",sacred,,,,"678",,,"Mariotti Lippi,_M., Mori Secci,_M., Giachi,G.,_Bouby, L.,_Terral, J. F.,_Castiglioni, E.,_Cottini, M.,_de Grummond, N. T._2020_Plant remains in an Etruscan-Roman well at Cetamura del Chianti, Italy_Archaeological and Anthropological Sciences, 12(1)_35",Toscana,Siena,,Periodo Etrusco
"3330",CTO45,Well #1 - 99,Cetamura del Chianti - well #65,"1253",micro,,"3",sacred,,,,"678",,,"Mariotti Lippi,_M., Mori Secci,_M., Giachi,G.,_Bouby, L.,_Terral, J. F.,_Castiglioni, E.,_Cottini, M.,_de Grummond, N. T._2020_Plant remains in an Etruscan-Roman well at Cetamura del Chianti, Italy_Archaeological and Anthropological Sciences, 12(1)_35",Toscana,Siena,,Periodo Etrusco
"3331",CTO45,Well #1 - 98,Cetamura del Chianti - well #66,"1253",micro,,"3",sacred,,,,"678",,,"Mariotti Lippi,_M., Mori Secci,_M., Giachi,G.,_Bouby, L.,_Terral, J. F.,_Castiglioni, E.,_Cottini, M.,_de Grummond, N. T._2020_Plant remains in an Etruscan-Roman well at Cetamura del Chianti, Italy_Archaeological and Anthropological Sciences, 12(1)_35",Toscana,Siena,,da identificare
"3332",CTO45,Well #1 - 97,Cetamura del Chianti - well #67,"1253",micro,,"3",sacred,,,,"678",,,"Mariotti Lippi,_M., Mori Secci,_M., Giachi,G.,_Bouby, L.,_Terral, J. F.,_Castiglioni, E.,_Cottini, M.,_de Grummond, N. T._2020_Plant remains in an Etruscan-Roman well at Cetamura del Chianti, Italy_Archaeological and Anthropological Sciences, 12(1)_35",Toscana,Siena,,da identificare
"3333",CTO45,Well #1 - 93,Cetamura del Chianti - well #68,"1253",micro,,"3",sacred,,,,"678",,,"Mariotti Lippi,_M., Mori Secci,_M., Giachi,G.,_Bouby, L.,_Terral, J. F.,_Castiglioni, E.,_Cottini, M.,_de Grummond, N. T._2020_Plant remains in an Etruscan-Roman well at Cetamura del Chianti, Italy_Archaeological and Anthropological Sciences, 12(1)_35",Toscana,Siena,,da identificare
"3334",CTO45,Well #1 - 92,Cetamura del Chianti - well #69,"1253",micro,,"3",sacred,,,,"678",,,"Mariotti Lippi,_M., Mori Secci,_M., Giachi,G.,_Bouby, L.,_Terral, J. F.,_Castiglioni, E.,_Cottini, M.,_de Grummond, N. T._2020_Plant remains in an Etruscan-Roman well at Cetamura del Chianti, Italy_Archaeological and Anthropological Sciences, 12(1)_35",Toscana,Siena,,da identificare
"3335",CTO45,Well #1 - 91,Cetamura del Chianti - well #70,"1253",micro,,"3",sacred,,,,"678",,,"Mariotti Lippi,_M., Mori Secci,_M., Giachi,G.,_Bouby, L.,_Terral, J. F.,_Castiglioni, E.,_Cottini, M.,_de Grummond, N. T._2020_Plant remains in an Etruscan-Roman well at Cetamura del Chianti, Italy_Archaeological and Anthropological Sciences, 12(1)_35",Toscana,Siena,,da identificare
"3336",CTO45,Well #1 - 90,Cetamura del Chianti - well #71,"1253",micro,,"3",sacred,,,,"678",,,"Mariotti Lippi,_M., Mori Secci,_M., Giachi,G.,_Bouby, L.,_Terral, J. F.,_Castiglioni, E.,_Cottini, M.,_de Grummond, N. T._2020_Plant remains in an Etruscan-Roman well at Cetamura del Chianti, Italy_Archaeological and Anthropological Sciences, 12(1)_35",Toscana,Siena,,da identificare
"3337",CTO45,Well #1 - 88,Cetamura del Chianti - well #72,"1253",micro,,"3",sacred,,,,"678",,,"Mariotti Lippi,_M., Mori Secci,_M., Giachi,G.,_Bouby, L.,_Terral, J. F.,_Castiglioni, E.,_Cottini, M.,_de Grummond, N. T._2020_Plant remains in an Etruscan-Roman well at Cetamura del Chianti, Italy_Archaeological and Anthropological Sciences, 12(1)_35",Toscana,Siena,,da identificare
"3338",CTO45,Well #1 - 87,Cetamura del Chianti - well #73,"1253",micro,,"3",sacred,,,,"678",,,"Mariotti Lippi,_M., Mori Secci,_M., Giachi,G.,_Bouby, L.,_Terral, J. F.,_Castiglioni, E.,_Cottini, M.,_de Grummond, N. T._2020_Plant remains in an Etruscan-Roman well at Cetamura del Chianti, Italy_Archaeological and Anthropological Sciences, 12(1)_35",Toscana,Siena,,da identificare
"3339",CTO45,Well #1 - 86,Cetamura del Chianti - well #74,"1253",micro,,"3",sacred,,,,"678",,,"Mariotti Lippi,_M., Mori Secci,_M., Giachi,G.,_Bouby, L.,_Terral, J. F.,_Castiglioni, E.,_Cottini, M.,_de Grummond, N. T._2020_Plant remains in an Etruscan-Roman well at Cetamura del Chianti, Italy_Archaeological and Anthropological Sciences, 12(1)_35",Toscana,Siena,,da identificare
"3340",CTO45,Well #1 - 85,Cetamura del Chianti - well #75,"1253",micro,,"3",sacred,,,,"678",,,"Mariotti Lippi,_M., Mori Secci,_M., Giachi,G.,_Bouby, L.,_Terral, J. F.,_Castiglioni, E.,_Cottini, M.,_de Grummond, N. T._2020_Plant remains in an Etruscan-Roman well at Cetamura del Chianti, Italy_Archaeological and Anthropological Sciences, 12(1)_35",Toscana,Siena,,da identificare
"5181",CTO30,ship C,Pisa - San Rossore,"5180",micro,I-II sec. AD,"3",underwater,,,,,,,,,,Età altoimperiale,Periodo Imperiale (Roma)
"5185",CTO37,S. Maria in Belverde - strato 3,S. Maria del Belvedere ,"5184",micro,Bronzo Antico,"3",settlement,,,,"2",,,"Carra, M. L.,_Cattani, L.,_Zanni, C._2003_Aspetti paletnobotanici dell'area insediativa protostorica di S. Maria in Belverde sul Monte Cetona (Siena)_Rivista di scienze preistoriche_53_505-518",Abruzzo,Chieti,Età del Bronzo antico,Età del Bronzo
"5187",CTO37,S. Maria in Belverde - strato 2,S. Maria del Belvedere ,"5184",micro,Bronzo medio iniziale,"3",settlement,,,,,,,"Carra, M. L.,_Cattani, L.,_Zanni, C._2003_Aspetti paletnobotanici dell'area insediativa protostorica di S. Maria in Belverde sul Monte Cetona (Siena)_Rivista di scienze preistoriche_53_505-518",,,Età del Bronzo medio,Età del Bronzo
"5189",CTO37,S. Maria in Belvedere - strato 1C,S. Maria del Belvedere ,"5184",micro,Bronzo medio ,"3",settlement,,,,,,,"Carra, M. L.,_Cattani, L.,_Zanni, C._2003_Aspetti paletnobotanici dell'area insediativa protostorica di S. Maria in Belverde sul Monte Cetona (Siena)_Rivista di scienze preistoriche_53_505-518",,,appenninica (cultura),Età del Bronzo
"5209",,Giardino del Padre Priore - end of  XX,,"5208",micro,end of  XX d.C.,"3",sacred,"<!DOCTYPE HTML PUBLIC ""-//W3C//DTD HTML 4.0//EN"" ""http://www.w3.org/TR/REC-html40/strict.dtd"">
<html><head><meta name=""qrichtext"" content=""1"" /><style type=""text/css"">
p, li { white-space: pre-wrap; }
</style></head><body style="" font-family:'MS Shell Dlg 2'; font-size:7.8pt; font-weight:400; font-style:normal;"">
<p style="" margin-top:0px; margin-bottom:0px; margin-left:0px; margin-right:0px; -qt-block-indent:0; text-indent:0px;"">NULL</p></body></html>",,,"2",,,,Abruzzo,Chieti,,Età contemporanea
"5210",,Giardino del Padre Priore - XIX - XX,,"5208",micro,XIX - XX,"3",sacred,"<!DOCTYPE HTML PUBLIC ""-//W3C//DTD HTML 4.0//EN"" ""http://www.w3.org/TR/REC-html40/strict.dtd"">
<html><head><meta name=""qrichtext"" content=""1"" /><style type=""text/css"">
p, li { white-space: pre-wrap; }
</style></head><body style="" font-family:'MS Shell Dlg 2'; font-size:7.8pt; font-weight:400; font-style:normal;"">
<p style="" margin-top:0px; margin-bottom:0px; margin-left:0px; margin-right:0px; -qt-block-indent:0; text-indent:0px;"">NULL</p></body></html>",,,"2",,,,Abruzzo,Chieti,,Età contemporanea
"5211",,Giardino del Padre Priore - end of XIX,,"5208",micro,end of XIX,"3",sacred,"<!DOCTYPE HTML PUBLIC ""-//W3C//DTD HTML 4.0//EN"" ""http://www.w3.org/TR/REC-html40/strict.dtd"">
<html><head><meta name=""qrichtext"" content=""1"" /><style type=""text/css"">
p, li { white-space: pre-wrap; }
</style></head><body style="" font-family:'MS Shell Dlg 2'; font-size:7.8pt; font-weight:400; font-style:normal;"">
<p style="" margin-top:0px; margin-bottom:0px; margin-left:0px; margin-right:0px; -qt-block-indent:0; text-indent:0px;"">NULL</p></body></html>",,,"2",,,,Abruzzo,Chieti,,Età contemporanea
"5212",,Giardino del Padre Priore - XIX,,"5208",micro,XIX d.C.,"3",sacred,"<!DOCTYPE HTML PUBLIC ""-//W3C//DTD HTML 4.0//EN"" ""http://www.w3.org/TR/REC-html40/strict.dtd"">
<html><head><meta name=""qrichtext"" content=""1"" /><style type=""text/css"">
p, li { white-space: pre-wrap; }
</style></head><body style="" font-family:'MS Shell Dlg 2'; font-size:7.8pt; font-weight:400; font-style:normal;"">
<p style="" margin-top:0px; margin-bottom:0px; margin-left:0px; margin-right:0px; -qt-block-indent:0; text-indent:0px;"">NULL</p></body></html>",,,"2",,,,Abruzzo,Chieti,,Età contemporanea
"5213",,Giardino del Padre Priore - II half of XVIII,,"5208",micro,II half of XVIII,"3",sacred,"<!DOCTYPE HTML PUBLIC ""-//W3C//DTD HTML 4.0//EN"" ""http://www.w3.org/TR/REC-html40/strict.dtd"">
<html><head><meta name=""qrichtext"" content=""1"" /><style type=""text/css"">
p, li { white-space: pre-wrap; }
</style></head><body style="" font-family:'MS Shell Dlg 2'; font-size:7.8pt; font-weight:400; font-style:normal;"">
<p style="" margin-top:0px; margin-bottom:0px; margin-left:0px; margin-right:0px; -qt-block-indent:0; text-indent:0px;"">NULL</p></body></html>",,,"2",,,,Abruzzo,Chieti,,Età contemporanea
"5216",,Giardino dello Speziale - XIX - XX,,"5208",micro,XIX - XX d.C.,"3",sacred,"<!DOCTYPE HTML PUBLIC ""-//W3C//DTD HTML 4.0//EN"" ""http://www.w3.org/TR/REC-html40/strict.dtd"">
<html><head><meta name=""qrichtext"" content=""1"" /><style type=""text/css"">
p, li { white-space: pre-wrap; }
</style></head><body style="" font-family:'MS Shell Dlg 2'; font-size:7.8pt; font-weight:400; font-style:normal;"">
<p style="" margin-top:0px; margin-bottom:0px; margin-left:0px; margin-right:0px; -qt-block-indent:0; text-indent:0px;"">NULL</p></body></html>",,,"2",,,,Abruzzo,Chieti,,Età contemporanea
"5217",,Giardino dello Speziale - XVIII,,"5208",micro,XVIII d.C.,"3",sacred,"<!DOCTYPE HTML PUBLIC ""-//W3C//DTD HTML 4.0//EN"" ""http://www.w3.org/TR/REC-html40/strict.dtd"">
<html><head><meta name=""qrichtext"" content=""1"" /><style type=""text/css"">
p, li { white-space: pre-wrap; }
</style></head><body style="" font-family:'MS Shell Dlg 2'; font-size:7.8pt; font-weight:400; font-style:normal;"">
<p style="" margin-top:0px; margin-bottom:0px; margin-left:0px; margin-right:0px; -qt-block-indent:0; text-indent:0px;"">NULL</p></body></html>",,,"2",,,,Abruzzo,Chieti,,Età contemporanea
"5218",,Giardino dello Speziale - XVII,,"5208",micro,XVII d.C.,"3",sacred,"<!DOCTYPE HTML PUBLIC ""-//W3C//DTD HTML 4.0//EN"" ""http://www.w3.org/TR/REC-html40/strict.dtd"">
<html><head><meta name=""qrichtext"" content=""1"" /><style type=""text/css"">
p, li { white-space: pre-wrap; }
</style></head><body style="" font-family:'MS Shell Dlg 2'; font-size:7.8pt; font-weight:400; font-style:normal;"">
<p style="" margin-top:0px; margin-bottom:0px; margin-left:0px; margin-right:0px; -qt-block-indent:0; text-indent:0px;"">NULL</p></body></html>",,,"2",,,,Abruzzo,Chieti,,Early modern
"5219",,Giardino dello Speziale - XV,,"5208",micro,XV d.C.,"3",sacred,"<!DOCTYPE HTML PUBLIC ""-//W3C//DTD HTML 4.0//EN"" ""http://www.w3.org/TR/REC-html40/strict.dtd"">
<html><head><meta name=""qrichtext"" content=""1"" /><style type=""text/css"">
p, li { white-space: pre-wrap; }
</style></head><body style="" font-family:'MS Shell Dlg 2'; font-size:7.8pt; font-weight:400; font-style:normal;"">
<p style="" margin-top:0px; margin-bottom:0px; margin-left:0px; margin-right:0px; -qt-block-indent:0; text-indent:0px;"">NULL</p></body></html>",,,"2",,,,Abruzzo,Chieti,,Early modern
"5220",,Giardino del Padre Maestro - II half of XX,,"5208",micro,II half of XX d.C.,"3",sacred,"<!DOCTYPE HTML PUBLIC ""-//W3C//DTD HTML 4.0//EN"" ""http://www.w3.org/TR/REC-html40/strict.dtd"">
<html><head><meta name=""qrichtext"" content=""1"" /><style type=""text/css"">
p, li { white-space: pre-wrap; }
</style></head><body style="" font-family:'MS Shell Dlg 2'; font-size:7.8pt; font-weight:400; font-style:normal;"">
<p style="" margin-top:0px; margin-bottom:0px; margin-left:0px; margin-right:0px; -qt-block-indent:0; text-indent:0px;"">NULL</p></body></html>",,,"2",,,,Abruzzo,Chieti,,Età contemporanea
"5221",,Giardino del Padre Maestro - XVIII - XIX,,"5208",micro,XVIII - XIX d.C.,"3",sacred,"<!DOCTYPE HTML PUBLIC ""-//W3C//DTD HTML 4.0//EN"" ""http://www.w3.org/TR/REC-html40/strict.dtd"">
<html><head><meta name=""qrichtext"" content=""1"" /><style type=""text/css"">
p, li { white-space: pre-wrap; }
</style></head><body style="" font-family:'MS Shell Dlg 2'; font-size:7.8pt; font-weight:400; font-style:normal;"">
<p style="" margin-top:0px; margin-bottom:0px; margin-left:0px; margin-right:0px; -qt-block-indent:0; text-indent:0px;"">NULL</p></body></html>",,,"2",,,,Abruzzo,Chieti,,Età contemporanea
"5226",,ship D,Pisa - San Rossore,"5180",micro,Second half of VI cent. AD – first half of VII cent. AD,"3",underwater,"<!DOCTYPE HTML PUBLIC ""-//W3C//DTD HTML 4.0//EN"" ""http://www.w3.org/TR/REC-html40/strict.dtd"">
<html><head><meta name=""qrichtext"" content=""1"" /><style type=""text/css"">
p, li { white-space: pre-wrap; }
</style></head><body style="" font-family:'MS Shell Dlg 2'; font-size:7.8pt; font-weight:400; font-style:normal;"">
<p style="" margin-top:0px; margin-bottom:0px; margin-left:0px; margin-right:0px; -qt-block-indent:0; text-indent:0px;"">NULL</p></body></html>",,,"2",,,,Abruzzo,Chieti,,Tarda Antichità
"5231",,ship H,Pisa - San Rossore,"5180",micro,II cent. BC,"3",underwater,"<!DOCTYPE HTML PUBLIC ""-//W3C//DTD HTML 4.0//EN"" ""http://www.w3.org/TR/REC-html40/strict.dtd"">
<html><head><meta name=""qrichtext"" content=""1"" /><style type=""text/css"">
p, li { white-space: pre-wrap; }
</style></head><body style="" font-family:'MS Shell Dlg 2'; font-size:7.8pt; font-weight:400; font-style:normal;"">
<p style="" margin-top:0px; margin-bottom:0px; margin-left:0px; margin-right:0px; -qt-block-indent:0; text-indent:0px;"">NULL</p></body></html>",,,"2",,,,Abruzzo,Chieti,,Periodo Tardo Repubblicano (Roma)
"5246",CTO54,shallow pit - US 5085,Gonfienti,"5245",micro,Middle Bronze Age-,"3",settlement,,,,,,,"Ciani, F.,_Attolini, D.,_Bellini, C.,_Mori Secci, M.,_Gonnelli, T.,_Pallecchi, P.,_Mariotti Lippi, M._2018_Archeobotanical investigations in the ancient city of Gonfienti, Italy (Bronze Age, Iron Age)_In METROLOGY FOR ARCHAEOLOGY AND CULTURAL HERITAGE_Institute of Electrical and Electronics Engineers_489-493",,,,Età del Bronzo medio
"5252",CTO54,shallow pit - US 5249 ,Gonfienti,"5245",micro,Middle Bronze Age-,"3",settlement,,,,,,,"Ciani, F.,_Attolini, D.,_Bellini, C.,_Mori Secci, M.,_Gonnelli, T.,_Pallecchi, P.,_Mariotti Lippi, M._2018_Archeobotanical investigations in the ancient city of Gonfienti, Italy (Bronze Age, Iron Age)_In METROLOGY FOR ARCHAEOLOGY AND CULTURAL HERITAGE_Institute of Electrical and Electronics Engineers_489-493",,,,Età del Bronzo medio
"5257",CTO54,shallow pit - US 5483,Gonfienti,"5245",micro,Middle Bronze Age-,"3",settlement,,,,,,,"Ciani, F.,_Attolini, D.,_Bellini, C.,_Mori Secci, M.,_Gonnelli, T.,_Pallecchi, P.,_Mariotti Lippi, M._2018_Archeobotanical investigations in the ancient city of Gonfienti, Italy (Bronze Age, Iron Age)_In METROLOGY FOR ARCHAEOLOGY AND CULTURAL HERITAGE_Institute of Electrical and Electronics Engineers_489-493",,,,Età del Bronzo medio
"5280",CLA85,Layer 60-69,Roma - Basilica Iulia - Navata centrale della Basilica Iulia,"5278",micro,5th century BC or first half of the 4th century BC-Phase I/II,"3",settlement,,,,,,,"Primavera, M_2023_I resti vegetali dai contesti pre-augustei e augustei_Basilica Iulia I Gli scavi di Laura Fabbrini (1960-1964) Strutture, stratigrafie e materiali dalla prima età repubblicana alla costruzione augustea_Ege Yayınları_497-502",,,,Prima Repubblica (Roma)
"5285",CLA85,Layer 60-5,Roma - Basilica Iulia - Navata centrale della Basilica Iulia,"5278",micro,First half of the 4th century BC-Phase II,"3",settlement,,,,,,,"Primavera, M_2023_I resti vegetali dai contesti pre-augustei e augustei_Basilica Iulia I Gli scavi di Laura Fabbrini (1960-1964) Strutture, stratigrafie e materiali dalla prima età repubblicana alla costruzione augustea_Ege Yayınları_497-502",,,,Prima Repubblica (Roma)
